{"type":"FeatureCollection","features":[{"type":"Feature","properties":{"name":"Ukraine","iso":"UA","ua":true},"geometry":{"type":"MultiPolygon","coordinates":[[[[38.214,47.091],[37.543,47.075],[37.34,46.917],[37.048,46.876],[36.795,46.714],[36.559,46.763],[36.279,46.659],[35.827,46.624],[35.4,46.381],[35.204,46.169],[35.015,46.106],[35.28,46.279],[35.292,46.371],[35.23,46.441],[35.064,46.267],[34.85,46.19],[34.857,45.987],[35.002,45.733],[34.946,45.729],[34.8,45.791],[34.794,45.892],[34.687,45.977],[34.45,45.966],[34.354,46.062],[34.027,46.107],[33.807,46.208],[33.66,46.22],[33.594,46.096],[33.43,46.058],[33.202,46.176],[32.477,46.084],[32.036,46.261],[31.831,46.282],[31.78,46.325],[31.992,46.364],[32.008,46.43],[31.714,46.472],[31.555,46.554],[32.361,46.475],[32.578,46.616],[32.354,46.565],[32.044,46.642],[31.945,46.784],[31.94,46.982],[31.759,47.213],[31.913,46.926],[31.873,46.65],[31.532,46.665],[31.563,46.777],[31.403,46.629],[30.796,46.552],[30.657,46.267],[30.219,45.867],[29.821,45.732],[29.628,45.722],[29.601,45.6],[29.67,45.541],[29.706,45.26],[29.404,45.42],[28.894,45.29],[28.782,45.31],[28.761,45.234],[28.451,45.292],[28.212,45.45],[28.499,45.518],[28.492,45.666],[28.729,45.852],[28.739,45.937],[28.948,46.05],[29.006,46.176],[28.931,46.362],[28.958,46.458],[29.186,46.524],[29.205,46.379],[29.305,46.467],[29.615,46.399],[29.707,46.449],[29.838,46.351],[30.131,46.423],[29.924,46.539],[29.942,46.724],[29.878,46.829],[29.572,46.964],[29.511,47.128],[29.539,47.271],[29.135,47.49],[29.211,47.775],[29.125,47.965],[28.923,47.951],[28.774,48.12],[28.53,48.15],[28.463,48.091],[28.423,48.147],[28.341,48.144],[28.347,48.213],[28.291,48.239],[28.088,48.257],[27.82,48.416],[27.549,48.478],[27.229,48.371],[26.847,48.387],[26.619,48.26],[26.306,48.204],[26.163,47.993],[25.464,47.911],[24.893,47.718],[24.484,47.947],[24.178,47.906],[23.408,47.99],[23.139,48.087],[22.877,47.947],[22.769,48.11],[22.582,48.134],[22.35,48.256],[22.254,48.407],[22.132,48.405],[22.143,48.569],[22.295,48.686],[22.539,49.073],[22.84,49.039],[22.847,49.081],[22.706,49.171],[22.732,49.295],[22.649,49.539],[22.706,49.606],[23.712,50.377],[23.973,50.41],[24.09,50.53],[24.095,50.617],[23.978,50.786],[24.096,50.873],[23.664,51.31],[23.609,51.61],[23.792,51.637],[23.978,51.591],[24.362,51.868],[25.267,51.938],[25.925,51.914],[27.142,51.752],[27.296,51.597],[27.69,51.572],[27.7,51.478],[27.859,51.592],[28.011,51.56],[28.184,51.608],[28.599,51.543],[28.648,51.457],[28.731,51.433],[28.85,51.54],[29.102,51.628],[29.346,51.383],[30.161,51.478],[30.309,51.4],[30.333,51.326],[30.545,51.265],[30.633,51.355],[30.533,51.596],[30.584,51.689],[30.755,51.895],[30.981,52.046],[31.574,52.108],[32.122,52.051],[32.283,52.114],[32.363,52.272],[32.435,52.307],[32.806,52.253],[33.148,52.34],[33.735,52.345],[33.922,52.251],[34.113,51.98],[34.398,51.78],[34.379,51.717],[34.121,51.679],[34.275,51.34],[34.214,51.255],[34.712,51.172],[35.064,51.203],[35.158,51.061],[35.312,51.044],[35.44,50.728],[35.412,50.54],[35.591,50.369],[35.674,50.346],[35.89,50.437],[36.116,50.409],[36.306,50.28],[36.5,50.28],[36.619,50.209],[36.759,50.292],[37.423,50.411],[37.582,50.292],[37.704,50.109],[38.047,49.92],[38.147,49.939],[38.178,50.025],[38.259,50.052],[38.918,49.825],[39.175,49.856],[39.303,49.742],[39.463,49.728],[39.781,49.572],[40.081,49.577],[40.058,49.432],[40.126,49.369],[40.109,49.252],[39.89,49.064],[39.687,49.008],[39.753,48.914],[40.004,48.822],[39.793,48.808],[39.645,48.591],[39.836,48.543],[39.89,48.36],[39.847,48.303],[39.958,48.269],[39.776,47.964],[39.779,47.888],[39.658,47.841],[38.9,47.855],[38.641,47.666],[38.369,47.61],[38.287,47.559],[38.201,47.321],[38.281,47.277],[38.201,47.175],[38.214,47.091]]],[[[32.012,46.204],[32.15,46.155],[31.564,46.258],[31.509,46.373],[31.638,46.273],[32.012,46.204]]]]}},{"type":"Feature","properties":{"name":"Turkey","iso":"TR","ua":false},"geometry":{"type":"MultiPolygon","coordinates":[[[[25.97,40.136],[25.669,40.136],[25.918,40.238],[25.97,40.136]]],[[[41.51,41.517],[41.824,41.432],[41.926,41.496],[42.466,41.44],[42.607,41.579],[42.788,41.564],[42.822,41.492],[43.171,41.288],[43.141,41.265],[43.205,41.199],[43.433,41.156],[43.455,41.065],[43.632,40.929],[43.723,40.72],[43.569,40.482],[43.71,40.167],[43.666,40.126],[43.942,40.023],[44.289,40.04],[44.4,39.996],[44.817,39.65],[44.587,39.769],[44.456,39.667],[44.389,39.422],[44.023,39.377],[44.079,39.218],[44.178,39.145],[44.171,38.934],[44.272,38.836],[44.299,38.386],[44.45,38.334],[44.211,37.908],[44.59,37.71],[44.545,37.658],[44.574,37.435],[44.794,37.29],[44.765,37.142],[44.606,37.176],[44.282,36.978],[44.202,37.052],[44.192,37.25],[44.114,37.302],[43.676,37.227],[43.092,37.367],[42.937,37.325],[42.775,37.372],[42.359,37.109],[42.313,37.23],[42.203,37.297],[42.06,37.206],[41.516,37.089],[40.706,37.098],[40.016,36.826],[39.357,36.682],[38.767,36.693],[38.444,36.862],[38.192,36.902],[37.436,36.643],[37.066,36.653],[36.942,36.758],[36.659,36.803],[36.538,36.457],[36.637,36.234],[36.375,36.171],[36.348,36.004],[36.202,35.938],[36.127,35.831],[35.893,35.917],[35.957,35.998],[35.811,36.31],[36.188,36.659],[36.18,36.807],[36.049,36.911],[35.661,36.724],[35.537,36.597],[35.393,36.575],[34.704,36.817],[34.3,36.604],[33.955,36.295],[33.695,36.182],[32.929,36.096],[32.795,36.036],[32.378,36.184],[32.022,36.535],[31.353,36.801],[30.644,36.866],[30.582,36.797],[30.558,36.526],[30.446,36.27],[30.387,36.243],[30.232,36.307],[29.689,36.157],[29.224,36.324],[29.143,36.397],[29.038,36.693],[28.97,36.715],[28.817,36.675],[28.484,36.804],[28.304,36.812],[28.196,36.686],[28.019,36.634],[28.084,36.751],[27.656,36.675],[27.454,36.712],[27.631,36.787],[28.005,36.832],[28.242,37.029],[27.349,37.02],[27.263,36.977],[27.25,37.079],[27.3,37.127],[27.535,37.164],[27.52,37.249],[27.219,37.389],[27.148,37.604],[27.068,37.658],[27.224,37.725],[27.232,37.979],[26.879,38.055],[26.683,38.198],[26.582,38.149],[26.291,38.277],[26.344,38.37],[26.416,38.368],[26.378,38.624],[26.441,38.641],[26.587,38.557],[26.595,38.419],[26.674,38.336],[26.727,38.419],[26.861,38.373],[27.144,38.452],[26.907,38.482],[26.764,38.71],[27.014,38.887],[26.815,38.961],[26.854,39.116],[26.682,39.292],[26.899,39.55],[26.113,39.467],[26.181,39.99],[26.313,40.025],[26.738,40.4],[27.285,40.456],[27.333,40.376],[27.476,40.32],[27.728,40.329],[27.849,40.382],[27.732,40.481],[27.875,40.513],[27.99,40.489],[27.929,40.38],[27.963,40.37],[29.007,40.39],[29.055,40.424],[28.788,40.534],[29.054,40.649],[29.845,40.738],[29.365,40.809],[29.114,40.938],[29.046,41.008],[29.148,41.221],[29.919,41.151],[30.345,41.197],[30.81,41.085],[31.255,41.108],[31.458,41.32],[32.306,41.73],[33.285,42.005],[34.75,41.957],[35.006,42.063],[35.155,42.028],[35.122,41.891],[35.298,41.729],[35.558,41.634],[35.92,41.714],[36.052,41.683],[36.179,41.427],[36.405,41.275],[36.51,41.263],[36.647,41.353],[36.778,41.363],[36.992,41.275],[37.066,41.184],[38.381,40.925],[39.426,41.106],[39.808,40.983],[40.265,40.961],[41.084,41.261],[41.51,41.517]]],[[[28.014,41.969],[27.987,41.855],[28.198,41.554],[29.057,41.23],[28.956,41.008],[28.78,40.974],[28.172,41.081],[27.925,40.991],[27.499,40.973],[27.258,40.687],[26.772,40.498],[26.33,40.123],[26.203,40.075],[26.254,40.315],[26.72,40.544],[26.792,40.627],[26.105,40.611],[26.039,40.727],[26.331,40.954],[26.331,41.239],[26.625,41.402],[26.581,41.601],[26.321,41.717],[26.327,41.773],[26.511,41.826],[26.615,41.965],[27.244,42.093],[27.535,41.921],[28.014,41.969]]]]}},{"type":"Feature","properties":{"name":"Slovakia","iso":"SK","ua":false},"geometry":{"type":"Polygon","coordinates":[[[22.539,49.073],[22.295,48.686],[22.143,48.569],[22.111,48.393],[21.721,48.347],[21.451,48.552],[21.067,48.506],[20.49,48.527],[20.334,48.296],[19.95,48.147],[19.625,48.223],[19.467,48.111],[18.792,48],[18.724,47.787],[17.762,47.77],[17.635,47.81],[17.317,47.991],[17.086,48.04],[16.865,48.387],[16.985,48.677],[17.136,48.841],[17.483,48.828],[17.758,48.888],[18.086,49.065],[18.161,49.257],[18.596,49.491],[18.938,49.498],[18.968,49.396],[19.149,49.4],[19.25,49.511],[19.442,49.598],[19.63,49.407],[19.774,49.372],[19.757,49.204],[19.802,49.192],[20.058,49.181],[20.164,49.316],[20.363,49.385],[20.616,49.392],[20.947,49.317],[21.079,49.418],[21.35,49.429],[21.89,49.343],[22.02,49.21],[22.539,49.073]]]}},{"type":"Feature","properties":{"name":"Slovenia","iso":"SI","ua":false},"geometry":{"type":"Polygon","coordinates":[[[16.516,46.5],[16.321,46.535],[16.237,46.484],[16.227,46.373],[16.067,46.371],[15.933,46.278],[15.636,46.201],[15.593,46.14],[15.666,46.048],[15.652,45.862],[15.277,45.733],[15.354,45.66],[15.284,45.58],[15.339,45.467],[15.242,45.441],[14.793,45.478],[14.569,45.657],[14.37,45.481],[13.993,45.509],[13.879,45.428],[13.615,45.477],[13.578,45.517],[13.875,45.615],[13.722,45.761],[13.583,45.812],[13.601,45.98],[13.488,45.987],[13.633,46.177],[13.378,46.262],[13.7,46.52],[14.55,46.4],[14.893,46.606],[15.439,46.63],[15.767,46.711],[15.958,46.678],[15.977,46.801],[16.093,46.863],[16.284,46.857],[16.381,46.639],[16.516,46.5]]]}},{"type":"Feature","properties":{"name":"Serbia","iso":"RS","ua":false},"geometry":{"type":"Polygon","coordinates":[[[21.36,44.827],[21.909,44.666],[22.093,44.542],[22.498,44.706],[22.721,44.606],[22.734,44.57],[22.502,44.49],[22.531,44.378],[22.705,44.238],[22.627,44.194],[22.597,44.075],[22.421,44.007],[22.37,43.781],[22.555,43.454],[22.977,43.188],[22.706,42.884],[22.467,42.842],[22.436,42.629],[22.532,42.481],[22.422,42.329],[22.24,42.358],[21.563,42.248],[21.519,42.328],[21.61,42.387],[21.753,42.67],[21.391,42.751],[21.403,42.832],[21.057,43.092],[20.844,43.173],[20.801,43.261],[20.623,43.199],[20.624,43.034],[20.475,42.953],[20.469,42.858],[20.344,42.828],[20.268,42.935],[19.614,43.173],[19.219,43.45],[19.194,43.533],[19.254,43.584],[19.451,43.562],[19.495,43.643],[19.245,43.965],[19.55,43.987],[19.584,44.043],[19.118,44.36],[19.151,44.527],[19.292,44.697],[19.349,44.881],[18.996,44.904],[19.085,44.927],[19.063,45.137],[19.137,45.196],[19.303,45.167],[19.4,45.212],[19.005,45.4],[19.064,45.515],[18.918,45.601],[18.947,45.656],[18.839,45.836],[18.905,45.932],[19.066,46.01],[19.278,46.003],[19.531,46.155],[20.21,46.126],[20.709,45.735],[20.775,45.75],[20.794,45.468],[21.024,45.322],[21.49,45.148],[21.353,45.009],[21.532,44.901],[21.36,44.827]]]}},{"type":"Feature","properties":{"name":"Russia","iso":"RU","ua":false},"geometry":{"type":"MultiPolygon","coordinates":[[[[130.687,42.303],[130.527,42.535],[130.577,42.623],[130.425,42.727],[130.577,42.812],[131.069,42.902],[131.257,43.378],[131.182,43.506],[131.174,43.705],[131.255,44.072],[130.982,44.844],[131.447,44.984],[131.654,45.205],[131.852,45.327],[131.978,45.244],[132.936,45.03],[133.113,45.131],[133.113,45.321],[133.186,45.495],[133.436,45.605],[133.513,45.879],[133.648,45.955],[133.701,46.14],[133.861,46.248],[133.903,46.367],[133.867,46.499],[134.023,46.713],[134.071,46.951],[134.202,47.128],[134.168,47.302],[134.291,47.414],[134.542,47.485],[134.752,47.715],[134.566,48.023],[134.669,48.153],[134.665,48.254],[134.293,48.373],[133.842,48.274],[133.468,48.097],[133.144,48.106],[132.707,47.947],[132.476,47.715],[130.962,47.709],[130.915,47.843],[130.733,48.019],[130.712,48.128],[130.804,48.342],[130.552,48.602],[130.617,48.773],[130.553,48.861],[130.196,48.892],[129.498,49.389],[129.065,49.375],[128.819,49.464],[128.704,49.6],[128,49.569],[127.711,49.672],[127.551,49.802],[127.492,49.975],[127.59,50.209],[127.337,50.35],[127.307,50.708],[126.925,51.1],[126.805,51.506],[126.709,51.566],[126.701,51.703],[126.511,51.926],[126.342,52.362],[126.194,52.519],[126.016,52.61],[126.048,52.739],[125.872,52.872],[125.728,52.891],[125.649,53.042],[125.075,53.204],[124.812,53.134],[123.608,53.547],[123.154,53.545],[122.516,53.457],[122.338,53.485],[120.985,53.285],[120.704,53.172],[120.095,52.787],[120.044,52.718],[120.068,52.633],[120.656,52.567],[120.699,52.494],[120.665,52.3],[120.745,52.205],[120.75,52.097],[120.681,51.973],[120.067,51.601],[119.746,51.108],[119.512,50.863],[119.446,50.703],[119.164,50.406],[119.302,50.354],[119.346,50.279],[119.26,50.066],[118.452,49.844],[117.873,49.513],[117.246,49.625],[116.217,50.009],[115.718,49.881],[115.429,49.896],[114.743,50.234],[114.297,50.274],[113.574,50.007],[113.164,49.797],[113.056,49.616],[112.806,49.524],[112.495,49.532],[112.08,49.424],[111.337,49.356],[110.71,49.143],[110.428,49.22],[110.2,49.17],[109.237,49.335],[108.614,49.323],[107.965,49.654],[107.917,49.948],[107.233,49.989],[106.711,50.313],[106.218,50.305],[105.384,50.474],[104.466,50.306],[104.079,50.154],[103.633,50.139],[103.304,50.2],[103.162,50.291],[102.683,50.387],[102.288,50.585],[102.317,50.718],[102.215,50.829],[102.156,51.314],[102.112,51.353],[101.571,51.467],[101.381,51.453],[100.469,51.726],[99.922,51.756],[99.719,51.872],[99.407,51.924],[98.893,52.117],[98.641,51.801],[98.353,51.718],[98.22,51.506],[98.038,51.45],[97.947,51.348],[97.836,51.052],[97.825,50.985],[97.953,50.855],[98.03,50.645],[98.279,50.533],[98.25,50.302],[98.004,50.014],[97.589,49.911],[97.36,49.741],[97.209,49.731],[96.986,49.883],[96.315,49.901],[96.066,49.999],[95.936,49.96],[95.789,50.013],[95.523,49.911],[95.111,49.935],[94.93,50.044],[94.615,50.024],[94.355,50.222],[94.251,50.556],[93.103,50.604],[92.941,50.778],[92.779,50.779],[92.739,50.711],[92.627,50.688],[92.355,50.864],[92.192,50.701],[91.804,50.694],[91.415,50.468],[91.022,50.415],[90.655,50.222],[90.054,50.094],[89.977,49.984],[89.644,49.903],[89.654,49.717],[89.396,49.612],[89.244,49.627],[89.109,49.501],[89.008,49.473],[88.9,49.54],[88.832,49.448],[88.633,49.486],[88.193,49.452],[88.116,49.256],[87.988,49.187],[87.417,49.077],[87.323,49.086],[87.234,49.216],[87.001,49.287],[86.714,49.559],[86.626,49.563],[86.614,49.61],[86.731,49.696],[86.675,49.777],[86.181,49.499],[85.233,49.616],[85.001,49.894],[84.989,50.061],[84.607,50.202],[84.323,50.239],[84.258,50.288],[84.176,50.521],[83.945,50.775],[83.357,50.995],[83.16,50.989],[83.019,50.897],[82.761,50.893],[82.494,50.728],[81.466,50.74],[81.388,50.956],[81.071,50.969],[81.127,51.191],[80.966,51.19],[80.877,51.281],[80.735,51.293],[80.448,51.183],[80.424,50.946],[80.22,50.912],[80.086,50.84],[80.066,50.758],[79.986,50.775],[79.469,51.493],[77.86,53.269],[76.485,54.023],[76.422,54.152],[76.655,54.145],[76.837,54.442],[75.693,54.115],[75.437,54.09],[75.377,53.97],[75.22,53.894],[75.052,53.827],[74.834,53.826],[74.452,53.647],[74.352,53.488],[74.21,53.576],[73.859,53.62],[73.643,53.576],[73.407,53.448],[73.286,53.598],[73.306,53.707],[73.399,53.811],[73.679,53.929],[73.712,54.042],[73.618,54.067],[73.381,53.963],[73.23,53.958],[72.914,54.107],[72.622,54.134],[72.564,54.09],[72.586,53.996],[72.447,53.942],[72.387,54.123],[72.186,54.326],[72.004,54.206],[71.336,54.158],[71.093,54.212],[71.053,54.26],[71.152,54.364],[71.186,54.599],[70.91,55.128],[70.738,55.305],[70.486,55.282],[70.182,55.162],[69.493,55.357],[68.977,55.39],[68.525,55.205],[68.206,55.161],[68.244,55.052],[68.156,54.977],[66.223,54.667],[65.914,54.693],[65.708,54.619],[65.477,54.623],[65.237,54.516],[65.158,54.364],[65.088,54.34],[64.927,54.397],[64.65,54.352],[64.461,54.384],[63.847,54.236],[63.191,54.171],[63.074,54.105],[62.499,54.013],[62.04,54.003],[61.929,53.946],[61.334,54.049],[61.231,54.019],[61.144,53.964],[61.113,53.753],[60.979,53.622],[61.248,53.551],[61.474,53.58],[61.535,53.523],[61.229,53.446],[61.163,53.337],[61.199,53.287],[61.66,53.228],[62.015,53.108],[62.083,53.005],[61.974,52.944],[61.047,52.972],[60.774,52.676],[60.995,52.337],[60.67,52.151],[60.425,52.126],[60.03,51.933],[60.388,51.773],[60.465,51.651],[61.363,51.442],[61.555,51.325],[61.585,51.23],[61.389,50.861],[60.942,50.696],[60.425,50.679],[60.288,50.704],[60.059,50.85],[59.955,50.799],[59.812,50.582],[59.523,50.493],[59.524,50.583],[59.452,50.62],[58.884,50.694],[58.359,51.064],[57.839,51.092],[57.654,50.925],[57.442,50.889],[57.179,51.036],[57.012,51.065],[56.62,50.981],[56.491,51.02],[56.144,50.845],[56.05,50.714],[55.686,50.583],[55.361,50.665],[54.642,51.012],[54.546,50.946],[54.65,50.66],[54.555,50.536],[54.471,50.584],[54.421,50.78],[54.14,51.041],[53.338,51.482],[52.571,51.482],[52.331,51.681],[52.219,51.709],[52.007,51.673],[51.609,51.484],[51.345,51.475],[51.163,51.647],[50.794,51.729],[50.309,51.322],[49.822,51.132],[49.498,51.084],[49.323,50.852],[48.808,50.601],[48.625,50.613],[48.843,50.013],[48.759,49.928],[48.434,49.829],[48.335,49.858],[47.706,50.378],[47.6,50.414],[47.429,50.358],[47.295,50.217],[47.248,50.001],[46.992,49.853],[46.89,49.697],[46.802,49.367],[47.031,49.15],[46.703,48.806],[46.609,48.574],[46.661,48.412],[47.065,48.232],[47.119,48.127],[47.093,47.948],[47.292,47.741],[47.482,47.804],[48.167,47.709],[48.553,47.321],[48.959,46.775],[48.884,46.705],[48.558,46.757],[48.502,46.699],[48.541,46.606],[49.232,46.337],[49.246,46.292],[49.125,46.282],[49.08,46.189],[48.684,46.086],[48.73,45.897],[48.487,45.935],[48.159,45.737],[47.83,45.663],[47.701,45.686],[47.633,45.584],[47.463,45.68],[47.524,45.602],[47.515,45.491],[47.413,45.421],[47.351,45.218],[47.084,44.817],[47.003,44.876],[46.957,44.783],[46.755,44.657],[46.716,44.561],[46.753,44.421],[47.024,44.343],[47.307,44.103],[47.463,43.555],[47.563,43.835],[47.646,43.885],[47.509,43.51],[47.463,43.035],[47.635,42.903],[47.728,42.681],[48.08,42.354],[48.384,41.953],[48.573,41.844],[48.391,41.602],[48.056,41.459],[47.861,41.213],[47.521,41.229],[47.261,41.315],[47.205,41.456],[46.749,41.813],[46.571,41.8],[46.538,41.87],[45.954,42.035],[45.639,42.205],[45.728,42.475],[45.656,42.518],[45.344,42.53],[45.16,42.675],[44.871,42.756],[44.771,42.617],[44.644,42.735],[44.506,42.749],[43.957,42.567],[43.826,42.572],[43.738,42.617],[43.783,42.747],[43.089,42.989],[42.992,43.092],[42.761,43.17],[42.566,43.155],[42.419,43.224],[41.581,43.219],[41.358,43.333],[41.083,43.374],[40.648,43.534],[40.15,43.57],[39.978,43.42],[38.717,44.288],[38.181,44.42],[37.851,44.699],[37.705,44.661],[37.495,44.695],[37.205,44.972],[36.651,45.126],[36.619,45.185],[36.941,45.29],[36.72,45.372],[36.794,45.41],[36.866,45.427],[37.214,45.272],[37.647,45.377],[37.672,45.488],[37.61,45.5],[37.612,45.565],[37.841,45.8],[37.933,46.002],[38.014,46.048],[38.074,46.017],[38.08,45.935],[38.184,46.095],[38.492,46.091],[38.078,46.394],[37.914,46.406],[37.767,46.636],[37.968,46.618],[38.23,46.701],[38.501,46.664],[38.439,46.813],[39.271,47.044],[39.293,47.106],[39.196,47.269],[39.024,47.272],[38.928,47.176],[38.668,47.144],[38.552,47.15],[38.762,47.262],[38.577,47.239],[38.214,47.091],[38.201,47.175],[38.281,47.277],[38.201,47.321],[38.287,47.559],[38.641,47.666],[38.822,47.837],[39.736,47.845],[39.779,47.888],[39.776,47.964],[39.958,48.269],[39.847,48.303],[39.89,48.36],[39.836,48.543],[39.645,48.591],[39.793,48.808],[40.004,48.822],[39.753,48.914],[39.687,49.008],[39.89,49.064],[40.109,49.252],[40.126,49.369],[40.058,49.432],[40.081,49.577],[39.781,49.572],[39.463,49.728],[39.303,49.742],[39.175,49.856],[38.918,49.825],[38.259,50.052],[38.178,50.025],[38.147,49.939],[38.047,49.92],[37.704,50.109],[37.582,50.292],[37.423,50.411],[36.759,50.292],[36.619,50.209],[36.5,50.28],[36.306,50.28],[36.116,50.409],[35.89,50.437],[35.674,50.346],[35.591,50.369],[35.412,50.54],[35.44,50.728],[35.312,51.044],[35.158,51.061],[35.064,51.203],[34.712,51.172],[34.214,51.255],[34.275,51.34],[34.121,51.679],[34.379,51.717],[34.398,51.78],[34.113,51.98],[33.922,52.251],[33.735,52.345],[33.148,52.34],[32.806,52.253],[32.435,52.307],[32.363,52.272],[32.283,52.114],[32.122,52.051],[31.763,52.101],[31.577,52.312],[31.616,52.546],[31.519,52.699],[31.565,52.759],[31.259,53.017],[31.418,53.196],[31.668,53.201],[31.85,53.106],[32.142,53.091],[32.704,53.336],[32.706,53.419],[32.47,53.547],[32.45,53.693],[32.2,53.781],[31.754,53.81],[31.826,54.031],[31.404,54.196],[31.185,54.453],[31.075,54.492],[31.152,54.625],[30.799,54.783],[30.83,54.915],[30.978,55.05],[30.811,55.307],[30.901,55.397],[30.907,55.57],[30.234,55.845],[29.937,55.845],[29.482,55.685],[29.353,55.784],[29.396,55.912],[29.283,55.968],[29.032,56.022],[28.795,55.943],[28.564,56.092],[28.284,56.056],[28.148,56.143],[28.202,56.26],[28.169,56.387],[28.103,56.546],[27.892,56.741],[27.882,56.824],[27.806,56.867],[27.639,56.846],[27.83,57.194],[27.829,57.293],[27.539,57.43],[27.511,57.508],[27.354,57.55],[27.542,57.799],[27.779,57.871],[27.673,57.935],[27.502,58.221],[27.531,58.435],[27.434,58.787],[27.758,59.052],[27.898,59.278],[28.151,59.374],[28.012,59.484],[28.064,59.554],[28.014,59.725],[28.058,59.782],[28.335,59.693],[28.518,59.85],[28.947,59.829],[29.147,60],[30.123,59.874],[30.173,59.957],[29.721,60.195],[29.069,60.191],[28.643,60.375],[28.492,60.54],[28.622,60.492],[28.651,60.611],[28.513,60.677],[28.179,60.571],[27.798,60.536],[28.407,60.897],[29.252,61.288],[31.187,62.481],[31.537,62.922],[31.181,63.208],[30.419,63.504],[29.992,63.735],[30.21,63.803],[30.526,64.077],[30.488,64.237],[30.108,64.366],[29.987,64.524],[30.12,64.645],[30.11,64.733],[29.783,64.804],[29.604,64.968],[29.622,65.04],[29.827,65.145],[29.811,65.205],[29.608,65.249],[29.715,65.337],[29.728,65.473],[29.819,65.569],[29.716,65.625],[30.095,65.682],[30.087,65.787],[29.903,66.091],[29.066,66.892],[29.087,66.971],[29.243,67.097],[29.941,67.547],[29.988,67.668],[29.344,68.062],[28.685,68.19],[28.471,68.488],[28.773,68.84],[28.414,68.904],[29.119,69.05],[29.388,69.298],[29.994,69.392],[30.164,69.502],[30.196,69.581],[30.16,69.63],[30.615,69.533],[30.861,69.538],[30.922,69.606],[30.87,69.783],[31.547,69.697],[31.789,69.816],[31.998,69.81],[31.985,69.954],[33.008,69.722],[32.995,69.626],[32.915,69.602],[32.177,69.674],[32.092,69.633],[32.331,69.554],[32.378,69.479],[33,69.47],[32.942,69.383],[32.979,69.367],[33.454,69.428],[33.328,69.152],[33.141,69.069],[33.436,69.13],[33.684,69.31],[34.229,69.313],[35.01,69.221],[35.29,69.275],[35.858,69.192],[37.731,68.692],[38.43,68.356],[38.832,68.325],[39.569,68.072],[39.823,68.059],[39.746,68.162],[39.809,68.151],[40.381,67.832],[40.966,67.713],[41.061,67.444],[41.134,67.386],[41.134,67.267],[41.359,67.21],[41.276,66.914],[41.189,66.826],[40.522,66.447],[40.103,66.3],[39.289,66.132],[38.654,66.069],[37.901,66.096],[36.984,66.273],[35.513,66.396],[34.825,66.611],[34.483,66.55],[34.396,66.613],[34.452,66.651],[33.15,66.844],[32.848,67.022],[32.93,67.087],[31.895,67.161],[32.501,67.004],[32.464,66.916],[32.862,66.721],[33.181,66.68],[33.217,66.532],[33.656,66.443],[33.361,66.33],[34.113,66.225],[34.4,66.128],[34.692,65.952],[34.786,65.865],[34.777,65.768],[34.616,65.51],[34.406,65.396],[34.804,64.986],[34.833,64.8],[34.952,64.756],[34.858,64.707],[34.87,64.56],[35.035,64.44],[35.432,64.347],[35.647,64.378],[36.146,64.189],[36.365,64.003],[37.442,63.813],[37.968,63.949],[38.071,64.026],[38.062,64.091],[37.954,64.32],[37.741,64.397],[37.184,64.408],[36.579,64.791],[36.535,64.939],[36.786,64.987],[36.883,65.172],[37.141,65.194],[37.528,65.108],[38.009,64.879],[38.412,64.857],[39.567,64.571],[39.758,64.577],[39.849,64.691],[40.058,64.771],[40.445,64.779],[40.281,64.998],[39.798,65.35],[39.749,65.448],[39.817,65.598],[40.328,65.752],[40.692,65.963],[41.476,66.123],[42.211,66.52],[42.602,66.423],[43.233,66.416],[43.653,66.251],[43.542,66.123],[43.844,66.142],[44.104,66.009],[44.145,66.113],[44.097,66.235],[44.489,66.672],[44.429,66.938],[44.292,67.1],[43.855,67.189],[43.782,67.254],[44.225,67.996],[44.205,68.254],[44.169,68.327],[43.333,68.673],[44.048,68.549],[45.078,68.578],[45.892,68.48],[46.684,67.97],[46.69,67.849],[45.529,67.758],[44.939,67.477],[44.902,67.413],[44.939,67.351],[45.562,67.186],[45.885,66.891],[46.492,66.8],[47.656,66.976],[47.768,67.276],[47.908,67.455],[47.875,67.584],[48.833,67.681],[48.878,67.731],[48.696,67.874],[48.754,67.896],[49.155,67.87],[50.699,68.318],[51.995,68.539],[52.285,68.459],[52.183,68.374],[52.397,68.352],[52.723,68.484],[52.55,68.592],[52.344,68.608],[53.802,68.996],[54.491,68.992],[53.798,68.907],[53.971,68.844],[53.759,68.634],[53.918,68.537],[53.931,68.436],[53.829,68.383],[53.343,68.343],[53.261,68.267],[53.968,68.227],[54.476,68.294],[54.718,68.184],[54.861,68.202],[54.923,68.374],[55.418,68.568],[56.044,68.649],[57.127,68.554],[58.173,68.89],[58.237,68.834],[58.354,68.916],[59.057,69.006],[59.11,68.896],[59.371,68.738],[59.112,68.616],[59.099,68.444],[59.726,68.352],[59.923,68.471],[59.865,68.605],[59.896,68.706],[60.489,68.729],[60.934,68.987],[60.859,69.146],[60.665,69.11],[60.171,69.591],[60.909,69.847],[63.361,69.675],[64.19,69.535],[64.929,69.325],[64.896,69.248],[65.032,69.27],[66.416,68.948],[67.002,68.874],[67.149,68.754],[67.731,68.514],[68.371,68.314],[68.504,68.348],[68.829,68.567],[69.141,68.951],[68.763,68.917],[68.543,68.967],[68.117,69.236],[68.073,69.421],[68.006,69.48],[67.624,69.584],[67.064,69.694],[66.964,69.656],[66.897,69.554],[66.804,69.659],[66.803,69.74],[66.926,70.014],[67.069,70.006],[67.239,70.108],[67.146,70.22],[67.285,70.739],[67.143,70.838],[66.702,70.819],[66.666,70.901],[66.847,71.064],[66.693,71.042],[66.64,71.081],[66.918,71.282],[67.542,71.412],[68.269,71.683],[68.607,72.013],[69.039,72.67],[69.391,72.956],[69.694,72.978],[69.645,72.898],[69.738,72.885],[71.5,72.914],[71.93,72.82],[72.446,72.79],[72.812,72.691],[72.753,72.343],[72.574,72.013],[72.279,71.696],[71.912,71.548],[71.867,71.457],[72.079,71.307],[72.581,71.151],[72.704,70.963],[72.7,70.457],[72.469,70.275],[72.599,69.793],[72.616,69.484],[72.527,69.154],[72.577,68.969],[72.812,68.815],[73.548,68.575],[73.592,68.482],[73.139,68.181],[73.173,67.973],[73.067,67.767],[72.594,67.587],[71.847,67.008],[71.668,66.94],[71.365,66.962],[71.551,66.76],[71.54,66.683],[71.342,66.687],[70.725,66.519],[70.383,66.602],[70.691,66.745],[70.283,66.686],[69.877,66.845],[69.013,66.788],[69.194,66.579],[69.982,66.401],[70.339,66.342],[71.358,66.359],[72.068,66.253],[72.322,66.332],[72.417,66.561],[73.514,66.861],[73.792,66.995],[74.075,67.414],[74.77,67.766],[74.743,68.074],[74.391,68.421],[74.481,68.659],[74.58,68.751],[75.125,68.862],[76.459,68.978],[77.112,68.596],[77.238,68.47],[77.248,67.941],[77.174,67.779],[77.772,67.57],[78.922,67.589],[77.588,67.752],[77.52,67.91],[77.536,68.008],[77.665,68.19],[77.995,68.259],[77.651,68.903],[76.001,69.235],[75.42,69.239],[74.815,69.091],[74.363,69.145],[73.977,69.115],[73.776,69.198],[73.891,69.418],[73.56,69.707],[73.578,69.803],[73.83,70.176],[74.343,70.579],[74.311,70.654],[73.577,71.217],[73.086,71.445],[73.672,71.845],[74.992,72.145],[75.09,72.263],[75.06,72.549],[74.787,72.812],[75.152,72.853],[75.369,72.797],[75.604,72.581],[75.591,72.457],[75.741,72.296],[75.395,71.983],[75.274,71.959],[75.247,71.813],[75.503,71.655],[75.469,71.534],[75.28,71.43],[75.332,71.342],[75.734,71.266],[76.742,71.202],[76.929,71.128],[76.995,71.181],[77.59,71.168],[78.321,70.93],[79.015,70.95],[79.084,71.002],[78.724,70.976],[78.491,71.025],[78.213,71.266],[77.908,71.324],[77.481,71.312],[76.433,71.552],[76.312,71.595],[76.032,71.91],[76.422,72.006],[76.871,72.033],[77.551,71.842],[78.187,71.907],[78.232,71.952],[78.016,72.092],[77.411,72.108],[77.472,72.192],[77.968,72.329],[78.483,72.395],[79.422,72.381],[79.954,72.223],[80.763,72.089],[80.856,71.97],[81.662,71.716],[82.758,71.764],[83.107,71.721],[83.234,71.668],[82.977,71.451],[82.323,71.26],[82.239,70.998],[82.336,70.807],[82.163,70.598],[82.221,70.396],[82.258,70.544],[82.452,70.69],[82.592,70.89],[82.869,70.955],[83.01,70.895],[83.051,70.815],[83.03,70.581],[82.92,70.407],[82.682,70.218],[82.857,70.105],[83.081,70.093],[83.132,70.157],[83.074,70.277],[83.497,70.345],[83.66,70.418],[83.736,70.546],[83.579,70.766],[83.151,71.104],[83.55,71.544],[83.534,71.684],[83.2,71.875],[82.645,71.925],[82.319,72.072],[82.184,72.238],[82.094,72.265],[81.098,72.39],[80.827,72.488],[80.656,72.712],[80.842,72.949],[80.757,73.025],[80.51,73.086],[80.425,73.231],[80.398,73.357],[80.596,73.474],[80.583,73.568],[81.817,73.659],[83.545,73.667],[84.738,73.763],[85.201,73.722],[85.448,73.735],[85.611,73.822],[86.893,73.887],[87.029,73.824],[86.094,73.578],[85.793,73.438],[85.818,73.327],[86.677,73.107],[86.715,73.126],[85.91,73.39],[85.939,73.456],[86.092,73.519],[87.12,73.615],[87.571,73.811],[87.21,73.879],[86.571,74.244],[86.001,74.316],[86.183,74.423],[86.396,74.45],[86.898,74.325],[87.23,74.364],[86.426,74.585],[85.791,74.645],[85.881,74.74],[86.059,74.728],[86.201,74.816],[86.651,74.682],[86.863,74.718],[87.419,74.941],[87.468,75.013],[86.939,75.068],[86.922,75.113],[87.006,75.17],[87.671,75.13],[88.733,75.369],[89.31,75.47],[89.595,75.458],[90.185,75.591],[91.479,75.65],[91.845,75.724],[94.075,75.913],[94.156,75.959],[93.687,75.922],[93.574,75.956],[93.406,75.901],[93.178,75.959],[92.987,75.903],[92.89,75.91],[92.859,75.979],[92.972,76.075],[93.105,76.026],[93.259,76.099],[93.648,76.054],[94.102,76.124],[94.507,76.108],[94.576,76.152],[95.579,76.137],[96.075,76.082],[95.653,75.892],[96.601,75.99],[96.497,75.891],[97.351,76.033],[97.499,75.98],[97.67,76.078],[98.662,76.243],[99.563,76.109],[99.77,76.029],[99.602,75.852],[99.442,75.803],[99.541,75.799],[99.851,75.93],[99.825,76.136],[98.806,76.481],[100.844,76.525],[101.598,76.439],[101.684,76.485],[100.928,76.557],[101.099,76.704],[100.92,76.823],[100.906,76.901],[100.99,76.99],[101.186,77.029],[101.518,77.198],[102.61,77.509],[103.131,77.626],[103.561,77.632],[104.015,77.73],[105.71,77.525],[106.06,77.391],[105.385,77.238],[104.202,77.102],[105.646,77.101],[105.712,77.001],[105.822,76.998],[106.145,77.045],[106.942,77.034],[107.43,76.927],[106.639,76.573],[106.385,76.589],[106.414,76.512],[106.825,76.48],[107.722,76.522],[107.902,76.57],[108.028,76.718],[108.182,76.738],[111.115,76.723],[111.786,76.604],[112.094,76.48],[111.943,76.38],[112.297,76.435],[112.62,76.384],[112.684,76.219],[112.798,76.13],[112.656,76.054],[113.15,76.175],[112.988,76.24],[113.273,76.252],[113.564,75.892],[113.857,75.921],[113.871,75.856],[113.749,75.705],[113.568,75.568],[113.486,75.564],[113.517,75.622],[113.392,75.678],[112.466,75.844],[112.73,75.738],[112.956,75.572],[113.243,75.611],[113.356,75.534],[113.726,75.451],[113.614,75.293],[112.925,75.015],[111.868,74.74],[111.299,74.658],[109.84,74.322],[109.911,74.261],[109.81,74.169],[109.075,74.032],[108.2,73.694],[107.271,73.621],[106.679,73.331],[106.189,73.308],[105.677,72.959],[105.144,72.777],[105.708,72.837],[106.478,73.139],[107.75,73.173],[108.351,73.31],[109.09,73.378],[109.331,73.487],[109.855,73.472],[110.868,73.731],[110.722,73.78],[109.753,73.723],[109.666,73.8],[109.869,73.931],[110.261,74.017],[111.056,73.939],[111.131,74.053],[111.551,74.029],[111.228,73.969],[111.4,73.828],[112.147,73.709],[112.795,73.746],[112.94,73.836],[112.836,73.962],[113.033,73.914],[113.416,73.648],[113.157,73.46],[113.491,73.346],[113.475,73.048],[113.128,72.831],[113.312,72.657],[113.665,72.635],[113.712,72.654],[113.298,72.739],[113.216,72.806],[113.543,73.054],[113.559,73.233],[113.886,73.346],[113.539,73.434],[113.51,73.505],[114.061,73.585],[114.816,73.607],[115.338,73.703],[118.45,73.59],[118.871,73.538],[118.936,73.481],[118.457,73.464],[118.377,73.367],[118.43,73.247],[119.75,72.979],[120.997,72.937],[121.748,72.97],[122.03,72.897],[122.537,72.878],[122.752,72.906],[122.502,72.971],[122.527,73.017],[123.16,72.955],[123.622,73.193],[123.323,73.431],[123.305,73.533],[123.416,73.637],[123.797,73.627],[124.019,73.712],[124.541,73.751],[125.617,73.521],[125.599,73.447],[126.254,73.548],[126.345,73.506],[126.257,73.42],[126.292,73.394],[126.553,73.335],[127.031,73.547],[127.74,73.482],[128.281,73.331],[128.258,73.267],[128.587,73.262],[128.889,73.19],[128.913,73.111],[129.101,73.112],[129.054,73.045],[128.599,72.895],[129.017,72.872],[129.229,72.776],[129.25,72.705],[128.418,72.535],[129.281,72.438],[129.412,72.315],[129.411,72.166],[129.283,72.092],[128.935,72.079],[127.803,72.434],[127.726,72.413],[127.841,72.308],[128.359,72.088],[128.911,71.755],[129.117,71.825],[129.154,71.879],[129.122,71.953],[129.21,71.917],[129.461,71.739],[128.843,71.663],[128.923,71.602],[129.134,71.593],[129.762,71.12],[130.537,70.893],[130.668,70.888],[130.757,70.962],[131.022,70.746],[131.268,70.766],[131.562,70.901],[131.906,71.203],[132.035,71.244],[132.004,71.35],[132.228,71.643],[132.654,71.926],[132.804,71.768],[133.131,71.607],[133.689,71.434],[134.103,71.379],[134.703,71.387],[135.022,71.515],[135.559,71.61],[136.09,71.62],[137.116,71.416],[137.94,71.133],[137.992,71.143],[137.844,71.227],[138.314,71.326],[137.918,71.384],[138.048,71.526],[138.234,71.596],[138.525,71.563],[138.78,71.629],[139.209,71.445],[139.984,71.492],[139.695,71.7],[139.723,71.885],[139.359,71.951],[139.64,71.998],[139.847,72.149],[140.188,72.191],[139.617,72.226],[139.43,72.163],[139.176,72.163],[139.141,72.33],[139.601,72.496],[140.451,72.493],[141.079,72.587],[140.983,72.63],[140.973,72.717],[140.652,72.843],[140.808,72.891],[142.061,72.721],[143.516,72.698],[146.253,72.442],[146.235,72.35],[144.897,72.396],[144.169,72.259],[144.471,72.175],[145.039,72.26],[146.832,72.295],[146.599,72.124],[146.113,71.945],[146.006,71.945],[146.23,72.138],[145.759,72.226],[145.664,72.067],[145.757,72.021],[145.757,71.941],[145.407,71.89],[145.064,71.926],[145.074,71.831],[144.99,71.753],[145.189,71.696],[146.073,71.808],[147.262,72.328],[148.402,72.312],[149.502,72.164],[149.963,71.992],[150.017,71.896],[149.881,71.843],[149.049,71.796],[148.923,71.715],[149.857,71.601],[150.061,71.511],[150.6,71.52],[150.668,71.455],[150.098,71.227],[150.968,71.38],[151.582,71.287],[152.093,71.023],[151.762,70.982],[152.509,70.834],[153.794,70.88],[155.895,71.096],[157.447,71.075],[158.702,70.935],[159.351,70.791],[159.728,70.65],[159.912,70.506],[160.006,70.31],[159.729,69.87],[159.833,69.785],[160.911,69.606],[161.036,69.098],[161.31,68.982],[161.341,68.905],[161.129,68.654],[160.856,68.538],[161.104,68.563],[161.365,68.823],[161.566,68.905],[161.566,69.064],[161.48,69.202],[161.537,69.38],[162.166,69.612],[163.201,69.715],[163.946,69.735],[164.513,69.609],[166.82,69.5],[167.628,69.74],[167.857,69.728],[168.15,69.577],[168.303,69.271],[169.311,69.08],[169.415,68.92],[169.61,68.786],[170.538,68.825],[170.995,69.045],[170.997,69.135],[170.714,69.388],[170.582,69.583],[170.161,69.627],[170.503,69.857],[170.487,70.108],[172.56,69.968],[173.277,69.824],[173.439,69.947],[173.948,69.874],[174.786,69.856],[175.921,69.895],[176.924,69.646],[178.848,69.387],[178.951,69.296],[179.273,69.26],[180,68.983],[180,65.067],[179.827,65.034],[179.448,64.822],[178.52,64.603],[177.749,64.717],[177.179,65.014],[176.881,65.082],[176.341,65.047],[177.037,65],[177.223,64.862],[177.069,64.787],[176.831,64.849],[176.429,64.855],[176.061,64.961],[175.781,64.844],[174.549,64.684],[175.678,64.782],[176.057,64.905],[176.247,64.843],[176.351,64.705],[176.141,64.586],[176.508,64.682],[176.843,64.634],[177.387,64.774],[177.467,64.737],[177.41,64.573],[177.433,64.444],[177.688,64.305],[178.045,64.22],[178.131,64.235],[178.229,64.364],[178.477,64.128],[178.451,64.011],[178.65,63.965],[178.692,63.842],[178.731,63.667],[178.44,63.606],[178.466,63.574],[178.654,63.557],[178.706,63.522],[178.679,63.402],[178.744,63.395],[178.793,63.54],[178.921,63.345],[179.332,63.19],[179.405,63.078],[179.26,63.008],[179.381,62.884],[179.511,62.863],[179.571,62.773],[179.571,62.688],[179.477,62.613],[179.177,62.469],[179.121,62.32],[178.019,62.547],[177.293,62.599],[177.339,62.781],[177.024,62.777],[176.965,62.659],[177.19,62.592],[177.159,62.561],[176.703,62.506],[176.328,62.346],[174.715,61.948],[174.514,61.824],[174.139,61.795],[173.822,61.679],[173.623,61.716],[173.132,61.407],[172.857,61.469],[172.807,61.436],[172.908,61.312],[172.731,61.314],[172.585,61.19],[172.396,61.167],[172.393,61.062],[170.608,60.435],[170.351,59.966],[169.983,60.067],[169.887,60.218],[169.618,60.438],[169.227,60.596],[168.137,60.574],[167.227,60.406],[166.964,60.307],[166.273,59.856],[166.187,59.849],[166.136,59.979],[166.352,60.485],[166.18,60.48],[165.942,60.357],[165.085,60.099],[165.074,59.946],[164.954,59.844],[164.779,59.874],[164.525,60.061],[164.377,60.058],[164.113,59.898],[164.135,59.984],[163.744,60.028],[163.365,59.781],[163.269,59.52],[163.273,59.303],[163.085,59.131],[162.94,59.114],[163.004,59.02],[162.97,58.986],[162.453,58.709],[162.142,58.447],[161.96,58.077],[162.04,57.918],[162.411,57.778],[162.391,57.717],[162.522,57.904],[162.654,57.948],[163.226,57.79],[163.188,57.637],[162.779,57.358],[162.762,57.244],[162.803,56.811],[162.922,56.723],[163.257,56.688],[163.336,56.233],[163.047,56.045],[162.84,56.066],[162.628,56.232],[163.038,56.522],[162.671,56.49],[162.489,56.399],[162.528,56.261],[162.085,56.09],[161.776,55.655],[161.724,55.496],[161.785,55.205],[162.08,54.886],[162.106,54.752],[161.625,54.516],[161.294,54.521],[161.13,54.598],[160.773,54.541],[160.074,54.189],[159.922,54.008],[159.844,53.784],[159.956,53.552],[159.898,53.381],[160.002,53.275],[160.025,53.13],[159.772,53.23],[159.586,53.238],[158.952,53.048],[158.745,52.909],[158.565,53.05],[158.472,53.032],[158.432,52.957],[158.609,52.874],[158.481,52.627],[158.493,52.383],[158.104,51.81],[156.748,50.969],[156.671,51.227],[156.521,51.38],[156.49,51.913],[156.365,52.509],[156.229,52.626],[156.11,52.866],[155.95,53.744],[155.706,54.521],[155.564,55.199],[155.717,56.072],[155.983,56.695],[156.728,57.152],[156.849,57.29],[156.977,57.466],[156.948,57.616],[156.792,57.748],[156.83,57.78],[156.986,57.83],[157.217,57.777],[157.45,57.799],[157.666,58.02],[158.275,58.009],[158.449,58.163],[159.211,58.519],[159.592,58.804],[159.847,59.127],[160.547,59.547],[160.855,59.627],[161.449,60.027],[161.754,60.152],[162.068,60.466],[162.973,60.783],[163.352,60.8],[163.71,60.917],[163.554,61.026],[164.005,61.344],[163.973,61.42],[163.804,61.461],[163.883,61.64],[164.02,61.711],[164.074,62.045],[164.207,62.292],[164.598,62.471],[165.208,62.374],[165.214,62.448],[165.417,62.447],[165.397,62.494],[164.792,62.571],[164.418,62.705],[163.332,62.551],[163.244,62.455],[163.302,62.373],[163.163,62.26],[163.131,62.05],[163.018,61.891],[163.009,61.792],[163.258,61.699],[163.085,61.571],[162.994,61.544],[162.856,61.705],[162.752,61.711],[162.699,61.653],[162.393,61.662],[161.037,60.963],[160.767,60.753],[160.482,60.74],[160.174,60.638],[160.226,60.832],[160.379,61.025],[160.184,61.048],[159.79,60.957],[159.949,61.129],[159.883,61.292],[160.247,61.648],[160.309,61.894],[160.183,61.903],[159.552,61.719],[159.295,61.914],[159.189,61.929],[158.07,61.754],[157.469,61.799],[157.084,61.676],[156.68,61.481],[156.63,61.272],[156.056,60.996],[155.716,60.682],[154.971,60.377],[154.578,60.095],[154.441,59.884],[154.293,59.833],[154.269,59.658],[154.15,59.529],[154.272,59.475],[154.583,59.54],[154.971,59.45],[155.167,59.36],[155.16,59.19],[154.704,59.141],[154.458,59.217],[154.247,59.109],[154.011,59.076],[153.695,59.225],[153.361,59.215],[153.273,59.091],[153.078,59.082],[152.818,58.926],[152.32,59.031],[152.165,58.997],[152.088,58.91],[151.327,58.875],[151.121,59.083],[152.261,59.224],[151.798,59.323],[151.348,59.561],[151.034,59.586],[150.823,59.461],[150.484,59.494],[150.667,59.556],[149.643,59.77],[149.425,59.761],[149.065,59.631],[149.205,59.488],[148.925,59.475],[148.797,59.532],[148.709,59.449],[148.744,59.374],[148.965,59.369],[148.914,59.283],[148.727,59.258],[148.491,59.262],[148.257,59.414],[147.875,59.388],[147.514,59.269],[146.537,59.457],[146.444,59.43],[146.273,59.221],[146.05,59.171],[145.932,59.198],[145.756,59.374],[145.555,59.414],[144.483,59.376],[143.869,59.411],[143.524,59.344],[143.192,59.37],[142.58,59.24],[142.025,59],[141.603,58.649],[140.79,58.303],[140.447,57.814],[140.002,57.688],[139.862,57.549],[139.507,57.358],[139.182,57.262],[138.966,57.088],[138.662,56.966],[137.692,56.139],[136.46,55.577],[136.175,55.352],[135.541,55.114],[135.262,54.943],[135.212,54.841],[135.258,54.731],[135.852,54.584],[136.797,54.621],[136.82,54.452],[136.683,53.931],[136.719,53.804],[136.803,53.782],[136.886,53.839],[137.155,53.822],[137.258,54.025],[137.096,54.129],[137.142,54.182],[137.378,54.282],[137.666,54.283],[137.513,54.156],[137.339,54.101],[137.623,53.97],[137.835,53.947],[137.645,53.866],[137.517,53.707],[137.221,53.579],[137.254,53.546],[137.95,53.604],[138.253,53.726],[138.379,53.909],[138.528,53.96],[138.568,53.947],[138.569,53.819],[138.25,53.524],[138.451,53.537],[138.661,53.745],[138.699,53.87],[138.716,54.223],[138.657,54.298],[139.32,54.193],[139.707,54.277],[140.179,54.052],[140.347,53.813],[140.688,53.596],[141.006,53.495],[141.218,53.334],[141.374,53.293],[141.402,53.184],[141.181,53.015],[140.84,53.088],[141.087,52.898],[141.256,52.84],[141.245,52.55],[141.132,52.436],[141.485,52.179],[141.386,52.057],[141.367,51.921],[140.933,51.62],[140.688,51.232],[140.671,51.051],[140.521,50.8],[140.476,50.546],[140.535,50.131],[140.625,50.082],[140.463,49.911],[140.517,49.596],[140.309,49.054],[140.378,48.964],[140.224,48.773],[140.113,48.423],[139.373,47.887],[139.001,47.383],[138.587,47.057],[138.392,46.745],[138.337,46.543],[138.21,46.463],[138.106,46.251],[137.685,45.818],[136.804,45.171],[136.251,44.667],[136.142,44.489],[135.875,44.374],[135.533,43.971],[135.483,43.835],[135.131,43.526],[134.01,42.947],[133.16,42.697],[133.059,42.723],[132.997,42.808],[132.864,42.794],[132.709,42.876],[132.304,42.883],[132.31,43.314],[132.029,43.119],[131.867,43.095],[132.013,43.28],[131.939,43.302],[131.722,43.203],[131.158,42.626],[130.709,42.656],[130.834,42.523],[130.687,42.303]]],[[[47.983,45.488],[47.92,45.562],[47.947,45.647],[47.983,45.488]]],[[[20.958,55.279],[20.595,54.982],[20.887,54.909],[21.189,54.935],[21.236,55.264],[21.389,55.276],[22.072,55.064],[22.567,55.059],[22.627,54.971],[22.825,54.871],[22.684,54.563],[22.766,54.357],[19.604,54.459],[19.859,54.634],[19.944,54.75],[19.975,54.921],[20.52,54.995],[20.9,55.287],[20.958,55.279]]],[[[33.594,46.096],[33.66,46.22],[33.807,46.208],[34.027,46.107],[34.354,46.062],[34.45,45.966],[34.687,45.977],[34.794,45.892],[34.8,45.791],[35.002,45.733],[35.26,45.447],[35.458,45.316],[35.833,45.402],[36.013,45.372],[36.171,45.453],[36.575,45.394],[36.393,45.065],[35.87,45.005],[35.678,45.102],[35.473,45.098],[35.088,44.803],[34.717,44.807],[34.47,44.722],[34.074,44.424],[33.756,44.399],[33.451,44.554],[33.612,44.908],[33.555,45.098],[33.392,45.188],[33.187,45.195],[32.919,45.348],[32.611,45.328],[32.508,45.404],[33.142,45.749],[33.665,45.947],[33.594,46.096]]]]}},{"type":"Feature","properties":{"name":"Romania","iso":"RO","ua":false},"geometry":{"type":"Polygon","coordinates":[[[28.212,45.45],[28.451,45.292],[28.761,45.234],[28.782,45.31],[28.894,45.29],[29.404,45.42],[29.706,45.26],[29.558,44.843],[29.048,44.758],[29.048,44.926],[29.095,44.975],[28.981,44.993],[28.892,44.919],[28.926,44.81],[28.807,44.565],[28.888,44.575],[28.645,44.296],[28.659,43.984],[28.585,43.742],[28.222,43.773],[28.05,43.822],[27.884,43.987],[27.739,43.956],[27.425,44.021],[27.087,44.167],[26.216,44.007],[25.819,43.767],[25.497,43.671],[23.225,43.874],[22.919,43.834],[22.868,43.948],[23.029,44.078],[22.688,44.248],[22.495,44.435],[22.554,44.54],[22.701,44.556],[22.721,44.606],[22.498,44.706],[22.093,44.542],[21.909,44.666],[21.36,44.827],[21.532,44.901],[21.353,45.009],[21.49,45.148],[21.024,45.322],[20.794,45.468],[20.775,45.75],[20.709,45.735],[20.242,46.109],[20.508,46.167],[20.614,46.133],[20.76,46.246],[21.122,46.282],[21.265,46.412],[21.32,46.608],[21.497,46.704],[21.494,46.79],[21.653,46.964],[21.661,47.044],[21.995,47.396],[22,47.505],[22.291,47.728],[22.608,47.766],[23.139,48.087],[23.408,47.99],[24.178,47.906],[24.579,47.931],[24.893,47.718],[25.464,47.911],[26.163,47.993],[26.306,48.204],[26.714,48.263],[26.981,48.155],[27.337,47.64],[27.614,47.341],[28.072,46.978],[28.239,46.641],[28.244,46.451],[28.1,45.973],[28.16,45.647],[28.075,45.599],[28.212,45.45]]]}},{"type":"Feature","properties":{"name":"Poland","iso":"PL","ua":false},"geometry":{"type":"Polygon","coordinates":[[[23.605,51.518],[23.68,51.395],[23.664,51.31],[24.096,50.873],[23.978,50.786],[24.095,50.617],[24.09,50.53],[23.973,50.41],[23.712,50.377],[22.706,49.606],[22.649,49.539],[22.732,49.295],[22.706,49.171],[22.847,49.081],[22.81,49.021],[22.02,49.21],[21.89,49.343],[21.64,49.412],[21.079,49.418],[21.001,49.34],[20.868,49.315],[20.616,49.392],[20.363,49.385],[20.164,49.316],[20.058,49.181],[19.757,49.204],[19.774,49.372],[19.63,49.407],[19.442,49.598],[19.25,49.511],[19.149,49.4],[18.968,49.396],[18.938,49.498],[18.832,49.511],[18.807,49.614],[18.595,49.758],[18.562,49.879],[18.305,49.914],[18.028,50.035],[17.831,49.983],[17.627,50.116],[17.589,50.157],[17.735,50.231],[17.702,50.307],[17.415,50.255],[17.152,50.378],[16.88,50.427],[16.99,50.237],[16.639,50.102],[16.21,50.424],[16.42,50.574],[16.282,50.656],[16.007,50.612],[15.731,50.74],[15.354,50.812],[15.259,50.959],[14.994,51.014],[14.983,50.887],[14.809,50.859],[15.017,51.253],[14.906,51.463],[14.725,51.524],[14.725,51.662],[14.602,51.832],[14.753,52.082],[14.68,52.25],[14.555,52.36],[14.619,52.529],[14.129,52.878],[14.411,53.199],[14.259,53.73],[14.583,53.639],[14.558,53.823],[14.214,53.871],[14.198,53.919],[16.186,54.29],[16.56,54.554],[16.885,54.596],[17.262,54.73],[18.086,54.836],[18.323,54.838],[18.759,54.685],[18.8,54.633],[18.436,54.745],[18.67,54.431],[18.976,54.349],[19.407,54.386],[19.604,54.459],[22.168,54.36],[22.894,54.391],[23.454,54.143],[23.599,53.599],[23.887,53.028],[23.901,52.704],[23.411,52.516],[23.175,52.287],[23.652,52.04],[23.626,51.809],[23.545,51.71],[23.605,51.518]]]}},{"type":"Feature","properties":{"name":"Montenegro","iso":"ME","ua":false},"geometry":{"type":"Polygon","coordinates":[[[19.194,43.533],[19.219,43.45],[19.614,43.173],[19.944,43.082],[20.348,42.853],[20.193,42.755],[20.054,42.76],[20.07,42.557],[19.939,42.507],[19.788,42.476],[19.728,42.635],[19.654,42.629],[19.281,42.173],[19.361,42.069],[19.342,41.869],[19.186,41.949],[18.894,42.249],[18.633,42.378],[18.646,42.443],[18.517,42.433],[18.438,42.523],[18.546,42.642],[18.466,42.777],[18.46,42.998],[18.624,43.028],[18.674,43.231],[18.851,43.346],[19.027,43.292],[18.951,43.527],[19.194,43.533]]]}},{"type":"Feature","properties":{"name":"Moldova","iso":"MD","ua":false},"geometry":{"type":"Polygon","coordinates":[[[26.619,48.26],[26.847,48.387],[27.229,48.371],[27.549,48.478],[27.82,48.416],[28.088,48.257],[28.291,48.239],[28.347,48.213],[28.341,48.144],[28.423,48.147],[28.463,48.091],[28.53,48.15],[28.774,48.12],[28.923,47.951],[29.125,47.965],[29.211,47.775],[29.135,47.49],[29.539,47.271],[29.511,47.128],[29.572,46.964],[29.878,46.829],[29.942,46.724],[29.924,46.539],[30.131,46.423],[29.838,46.351],[29.707,46.449],[29.615,46.399],[29.305,46.467],[29.205,46.379],[29.186,46.524],[28.958,46.458],[28.931,46.362],[29.006,46.176],[28.948,46.05],[28.739,45.937],[28.729,45.852],[28.492,45.666],[28.499,45.518],[28.212,45.45],[28.075,45.599],[28.16,45.647],[28.1,45.973],[28.244,46.451],[28.239,46.641],[28.072,46.978],[27.614,47.341],[27.337,47.64],[26.981,48.155],[26.787,48.256],[26.619,48.26]]]}},{"type":"Feature","properties":{"name":"North Macedonia","iso":"MK","ua":false},"geometry":{"type":"Polygon","coordinates":[[[21.563,42.248],[22.24,42.358],[22.583,42.105],[22.796,42.026],[23.004,41.74],[22.93,41.356],[22.784,41.332],[22.725,41.179],[22.604,41.14],[21.993,41.131],[21.779,40.95],[21.576,40.869],[21.404,40.907],[20.964,40.85],[20.933,40.903],[20.741,40.905],[20.489,41.273],[20.449,41.521],[20.516,41.575],[20.553,41.862],[20.725,41.874],[20.778,42.071],[21.06,42.171],[21.287,42.1],[21.39,42.22],[21.563,42.248]]]}},{"type":"Feature","properties":{"name":"Lithuania","iso":"LT","ua":false},"geometry":{"type":"MultiPolygon","coordinates":[[[[20.958,55.279],[20.9,55.287],[21.115,55.617],[21.104,55.488],[20.958,55.279]]],[[[22.766,54.357],[22.684,54.563],[22.825,54.871],[22.627,54.971],[22.567,55.059],[22.072,55.064],[21.389,55.276],[21.236,55.264],[21.201,55.344],[21.238,55.455],[21.062,55.813],[21.046,56.07],[21.654,56.315],[22.085,56.407],[22.876,56.396],[23.043,56.324],[23.196,56.367],[24.121,56.264],[24.474,56.284],[24.841,56.411],[25.07,56.2],[25.663,56.105],[26.281,55.75],[26.594,55.668],[26.458,55.342],[26.776,55.273],[26.601,55.13],[26.292,55.14],[26.175,55.003],[25.859,54.919],[25.722,54.718],[25.725,54.564],[25.547,54.332],[25.748,54.26],[25.765,54.18],[25.681,54.14],[25.51,54.16],[25.527,54.215],[25.461,54.293],[25.046,54.133],[24.87,54.145],[24.768,53.975],[24.318,53.893],[24.191,53.95],[23.559,53.92],[23.485,53.94],[23.454,54.143],[23.37,54.2],[22.894,54.391],[22.766,54.357]]]]}},{"type":"Feature","properties":{"name":"Latvia","iso":"LV","ua":false},"geometry":{"type":"Polygon","coordinates":[[[26.594,55.668],[26.281,55.75],[25.663,56.105],[25.07,56.2],[24.841,56.411],[24.474,56.284],[24.121,56.264],[23.196,56.367],[23.043,56.324],[22.876,56.396],[22.085,56.407],[21.654,56.315],[21.046,56.07],[21.031,56.637],[21.071,56.824],[21.351,57.018],[21.459,57.322],[21.729,57.571],[22.555,57.724],[22.649,57.595],[23.137,57.324],[23.287,57.09],[23.648,56.971],[23.931,57.008],[24.383,57.25],[24.323,57.871],[25.111,58.063],[25.229,57.997],[25.34,58.039],[25.991,57.838],[26.298,57.601],[26.462,57.544],[26.966,57.609],[27.47,57.524],[27.539,57.43],[27.829,57.293],[27.83,57.194],[27.639,56.846],[27.849,56.853],[28.008,56.6],[28.103,56.546],[28.202,56.26],[28.148,56.143],[27.896,56.076],[27.642,55.912],[27.577,55.799],[27.053,55.831],[26.822,55.709],[26.594,55.668]]]}},{"type":"Feature","properties":{"name":"Kosovo","iso":"-99","ua":false},"geometry":{"type":"Polygon","coordinates":[[[20.344,42.828],[20.469,42.858],[20.475,42.953],[20.624,43.034],[20.623,43.199],[20.801,43.261],[20.844,43.173],[21.057,43.092],[21.403,42.832],[21.391,42.751],[21.752,42.652],[21.61,42.387],[21.519,42.328],[21.563,42.248],[21.39,42.22],[21.287,42.1],[21.06,42.171],[20.778,42.071],[20.725,41.874],[20.579,41.866],[20.485,42.223],[20.241,42.339],[20.064,42.547],[20.054,42.76],[20.193,42.755],[20.344,42.828]]]}},{"type":"Feature","properties":{"name":"Kazakhstan","iso":"KZ","ua":false},"geometry":{"type":"MultiPolygon","coordinates":[[[[50.184,44.855],[50.095,44.831],[49.995,44.937],[50.023,45.045],[50.11,45.082],[50.039,44.949],[50.184,44.855]]],[[[70.947,42.249],[70.715,42.169],[70.584,42.036],[70.416,42.079],[70.096,41.821],[69.154,41.425],[69.065,41.367],[68.987,41.205],[68.584,40.876],[68.573,40.623],[68.415,40.619],[68.048,40.809],[68.113,41.029],[67.936,41.197],[66.814,41.142],[66.71,41.179],[66.499,41.995],[66.01,42.005],[66.1,42.991],[65.803,42.877],[65.496,43.311],[65.271,43.418],[64.905,43.715],[64.443,43.551],[63.207,43.628],[61.99,43.492],[61.161,44.169],[61.008,44.394],[58.555,45.555],[55.976,44.995],[55.977,41.322],[55.545,41.263],[55.434,41.296],[54.854,41.965],[54.121,42.335],[53.685,42.297],[53.056,42.148],[52.494,41.78],[52.462,42.101],[52.618,42.428],[52.597,42.76],[52.494,42.82],[52.273,42.8],[52.184,42.869],[51.898,42.87],[51.616,43.158],[51.295,43.174],[51.302,43.482],[51.065,43.75],[50.831,44.193],[50.331,44.325],[50.253,44.462],[50.297,44.582],[50.409,44.624],[50.86,44.629],[51.177,44.501],[51.544,44.531],[51.31,44.619],[51.058,44.812],[51.009,44.922],[51.25,45.122],[51.416,45.358],[52.427,45.405],[52.911,45.32],[53.2,45.332],[52.774,45.573],[53.135,46.192],[53.064,46.475],[53.17,46.669],[53.069,46.856],[52.916,46.954],[52.483,46.991],[52.138,46.829],[52.011,46.902],[51.745,46.934],[51.615,47.03],[51.178,47.11],[50.583,46.882],[50.419,46.879],[49.886,46.596],[49.347,46.519],[49.362,46.41],[49.286,46.437],[49.206,46.386],[49.232,46.337],[48.61,46.566],[48.509,46.65],[48.519,46.734],[48.605,46.766],[48.884,46.705],[48.959,46.775],[48.553,47.321],[48.167,47.709],[47.482,47.804],[47.292,47.741],[47.093,47.948],[47.119,48.127],[47.065,48.232],[46.661,48.412],[46.609,48.574],[46.703,48.806],[47.031,49.15],[46.802,49.367],[46.823,49.502],[46.992,49.853],[47.248,50.001],[47.326,50.274],[47.504,50.403],[47.706,50.378],[48.335,49.858],[48.434,49.829],[48.759,49.928],[48.843,50.013],[48.625,50.613],[48.808,50.601],[49.323,50.852],[49.498,51.084],[49.822,51.132],[50.309,51.322],[50.794,51.729],[51.163,51.647],[51.345,51.475],[51.609,51.484],[52.007,51.673],[52.219,51.709],[52.331,51.681],[52.571,51.482],[53.338,51.482],[54.14,51.041],[54.421,50.78],[54.471,50.584],[54.555,50.536],[54.65,50.66],[54.546,50.946],[54.642,51.012],[55.361,50.665],[55.686,50.583],[56.05,50.714],[56.144,50.845],[56.491,51.02],[56.62,50.981],[57.012,51.065],[57.179,51.036],[57.442,50.889],[57.654,50.925],[57.839,51.092],[58.359,51.064],[58.884,50.694],[59.452,50.62],[59.524,50.583],[59.523,50.493],[59.812,50.582],[59.955,50.799],[60.059,50.85],[60.288,50.704],[60.425,50.679],[60.942,50.696],[61.389,50.861],[61.585,51.23],[61.555,51.325],[61.363,51.442],[60.465,51.651],[60.388,51.773],[60.03,51.933],[60.425,52.126],[60.67,52.151],[60.995,52.337],[60.774,52.676],[61.047,52.972],[61.974,52.944],[62.083,53.005],[62.015,53.108],[61.66,53.228],[61.199,53.287],[61.163,53.337],[61.229,53.446],[61.535,53.523],[61.474,53.58],[61.248,53.551],[60.979,53.622],[61.113,53.753],[61.144,53.964],[61.231,54.019],[61.334,54.049],[61.929,53.946],[62.04,54.003],[62.499,54.013],[63.074,54.105],[63.191,54.171],[63.847,54.236],[64.461,54.384],[64.65,54.352],[64.927,54.397],[65.088,54.34],[65.158,54.364],[65.237,54.516],[65.477,54.623],[65.708,54.619],[65.914,54.693],[66.223,54.667],[68.156,54.977],[68.244,55.052],[68.206,55.161],[68.525,55.205],[68.977,55.39],[69.493,55.357],[70.182,55.162],[70.486,55.282],[70.738,55.305],[70.91,55.128],[71.186,54.599],[71.152,54.364],[71.053,54.26],[71.093,54.212],[71.336,54.158],[72.004,54.206],[72.186,54.326],[72.387,54.123],[72.447,53.942],[72.586,53.996],[72.564,54.09],[72.622,54.134],[72.914,54.107],[73.23,53.958],[73.381,53.963],[73.618,54.067],[73.712,54.042],[73.679,53.929],[73.399,53.811],[73.306,53.707],[73.286,53.598],[73.407,53.448],[73.643,53.576],[73.859,53.62],[74.21,53.576],[74.352,53.488],[74.452,53.647],[74.834,53.826],[75.052,53.827],[75.22,53.894],[75.377,53.97],[75.437,54.09],[75.693,54.115],[76.837,54.442],[76.655,54.145],[76.422,54.152],[76.485,54.023],[77.86,53.269],[79.469,51.493],[79.986,50.775],[80.066,50.758],[80.086,50.84],[80.22,50.912],[80.424,50.946],[80.448,51.183],[80.735,51.293],[80.877,51.281],[80.966,51.19],[81.127,51.191],[81.071,50.969],[81.388,50.956],[81.466,50.74],[82.494,50.728],[82.761,50.893],[83.019,50.897],[83.16,50.989],[83.357,50.995],[83.945,50.775],[84.176,50.521],[84.258,50.288],[84.323,50.239],[84.607,50.202],[84.989,50.061],[85.001,49.894],[85.233,49.616],[86.181,49.499],[86.675,49.777],[86.731,49.696],[86.614,49.61],[86.626,49.563],[86.812,49.488],[87.001,49.287],[87.234,49.216],[87.323,49.086],[87.049,49.11],[86.808,49.05],[86.729,48.939],[86.718,48.697],[86.549,48.529],[85.749,48.385],[85.526,47.916],[85.657,47.255],[85.485,47.064],[85.233,47.036],[84.786,46.831],[84.667,46.972],[84.016,46.971],[83.09,47.209],[83.029,47.186],[82.975,46.966],[82.315,45.595],[82.327,45.52],[82.612,45.424],[82.621,45.293],[82.521,45.125],[82.267,45.219],[81.945,45.161],[81.79,45.226],[81.692,45.349],[80.853,45.129],[80.059,45.006],[79.872,44.884],[79.997,44.797],[80.255,44.808],[80.482,44.715],[80.381,44.655],[80.355,44.552],[80.355,44.097],[80.651,43.564],[80.704,43.427],[80.668,43.31],[80.786,43.162],[80.751,43.102],[80.617,43.128],[80.39,43.043],[80.383,42.974],[80.539,42.873],[80.25,42.797],[80.202,42.734],[80.162,42.626],[80.259,42.235],[80.209,42.19],[79.921,42.413],[79.428,42.483],[79.127,42.776],[78.885,42.775],[78.524,42.865],[77.236,42.913],[76.988,42.974],[76.509,42.919],[75.84,42.938],[75.636,42.815],[75.366,42.837],[74.818,42.978],[74.209,43.24],[73.949,43.195],[73.556,43.003],[73.422,42.594],[73.493,42.409],[72.276,42.758],[71.761,42.821],[71.257,42.734],[71.023,42.535],[70.893,42.34],[70.947,42.249]]]]}},{"type":"Feature","properties":{"name":"Hungary","iso":"HU","ua":false},"geometry":{"type":"Polygon","coordinates":[[[22.132,48.405],[22.254,48.407],[22.35,48.256],[22.582,48.134],[22.769,48.11],[22.877,47.947],[22.608,47.766],[22.291,47.728],[22,47.505],[21.995,47.396],[21.661,47.044],[21.653,46.964],[21.494,46.79],[21.497,46.704],[21.32,46.608],[21.265,46.412],[21.04,46.242],[20.837,46.26],[20.614,46.133],[20.508,46.167],[20.242,46.109],[19.613,46.169],[19.278,46.003],[19.087,46.016],[18.928,45.931],[18.666,45.907],[18.437,45.767],[17.964,45.77],[17.311,45.996],[16.871,46.339],[16.516,46.5],[16.381,46.639],[16.284,46.857],[16.093,46.863],[16.253,46.972],[16.453,47.007],[16.493,47.123],[16.417,47.223],[16.463,47.273],[16.443,47.4],[16.623,47.448],[16.677,47.536],[16.64,47.609],[16.421,47.674],[16.591,47.751],[16.786,47.679],[17.067,47.708],[17.03,47.837],[17.147,48.006],[17.317,47.991],[17.762,47.77],[18.724,47.787],[18.792,48],[19.467,48.111],[19.625,48.223],[19.95,48.147],[20.334,48.296],[20.49,48.527],[21.067,48.506],[21.451,48.552],[21.721,48.347],[22.132,48.405]]]}},{"type":"Feature","properties":{"name":"Greece","iso":"GR","ua":false},"geometry":{"type":"MultiPolygon","coordinates":[[[[24.774,40.615],[24.646,40.579],[24.517,40.687],[24.623,40.793],[24.719,40.786],[24.786,40.704],[24.774,40.615]]],[[[25.686,40.427],[25.573,40.4],[25.448,40.483],[25.569,40.516],[25.686,40.427]]],[[[25.438,39.983],[25.357,39.808],[25.263,39.823],[25.249,39.894],[25.185,39.83],[25.062,39.852],[25.058,40],[25.234,40.005],[25.286,39.956],[25.449,40.035],[25.438,39.983]]],[[[26.321,41.717],[26.581,41.601],[26.625,41.402],[26.331,41.239],[26.354,40.997],[26.109,40.75],[26.039,40.727],[25.856,40.844],[25.104,40.995],[24.793,40.858],[24.477,40.948],[24.082,40.724],[23.763,40.748],[23.743,40.677],[23.879,40.544],[23.832,40.482],[23.867,40.419],[24.213,40.328],[24.343,40.148],[24.159,40.28],[23.913,40.359],[23.728,40.33],[23.721,40.286],[23.967,40.115],[24.001,40.025],[23.947,39.966],[23.665,40.224],[23.426,40.264],[23.386,40.222],[23.433,40.115],[23.674,39.959],[23.627,39.924],[23.396,39.99],[23.312,40.216],[22.896,40.4],[22.851,40.491],[22.922,40.591],[22.629,40.496],[22.592,40.037],[22.836,39.801],[22.979,39.564],[23.233,39.358],[23.328,39.175],[23.155,39.101],[23.119,39.133],[23.162,39.258],[22.993,39.331],[22.921,39.306],[22.839,39.259],[22.886,39.17],[22.966,39.031],[23.067,39.038],[22.803,38.902],[22.569,38.867],[23.253,38.661],[23.369,38.526],[23.57,38.489],[23.684,38.352],[23.967,38.275],[24.025,38.14],[24.055,37.71],[23.972,37.677],[23.502,38.035],[23.036,37.878],[23.147,37.795],[23.198,37.62],[23.396,37.58],[23.489,37.44],[23.162,37.334],[23.015,37.482],[22.775,37.585],[22.725,37.542],[23.06,36.854],[23.041,36.645],[23.16,36.448],[22.983,36.528],[22.78,36.786],[22.717,36.794],[22.608,36.78],[22.489,36.568],[22.489,36.447],[22.428,36.476],[22.375,36.514],[22.376,36.702],[22.08,37.029],[21.956,36.99],[21.892,36.737],[21.738,36.863],[21.583,37.081],[21.579,37.2],[21.692,37.309],[21.679,37.387],[21.571,37.541],[21.329,37.669],[21.288,37.775],[21.125,37.892],[21.308,38.027],[21.404,38.197],[21.658,38.175],[21.825,38.328],[21.953,38.321],[22.92,37.958],[22.893,38.051],[23.122,38.073],[23.183,38.134],[23.094,38.196],[22.834,38.235],[22.422,38.439],[22.32,38.357],[21.965,38.412],[21.473,38.321],[21.331,38.487],[21.303,38.374],[21.183,38.346],[21.113,38.385],[20.992,38.654],[20.777,38.808],[20.769,38.874],[20.777,38.928],[20.893,38.941],[21.112,38.896],[21.152,38.922],[21.118,39.03],[20.78,39.009],[20.301,39.327],[20.191,39.546],[20.001,39.709],[20.248,39.678],[20.306,39.797],[20.382,39.803],[20.311,39.979],[20.657,40.117],[20.806,40.445],[20.95,40.494],[21.031,40.622],[20.964,40.85],[21.404,40.907],[21.576,40.869],[21.779,40.95],[21.993,41.131],[22.494,41.119],[22.725,41.179],[22.784,41.332],[23.635,41.387],[24.011,41.46],[24.056,41.527],[24.518,41.553],[24.596,41.443],[24.774,41.356],[24.847,41.394],[24.994,41.365],[25.251,41.244],[25.923,41.312],[26.135,41.386],[26.086,41.704],[26.321,41.717]]]]}},{"type":"Feature","properties":{"name":"Germany","iso":"DE","ua":false},"geometry":{"type":"MultiPolygon","coordinates":[[[[9.524,47.524],[9.183,47.671],[8.881,47.656],[8.573,47.776],[8.403,47.688],[8.571,47.638],[8.43,47.592],[7.927,47.564],[7.565,47.607],[7.539,47.774],[7.617,48.157],[7.838,48.636],[8.14,48.886],[8.135,48.974],[7.611,49.062],[7.451,49.152],[7.037,49.113],[7.001,49.18],[6.891,49.208],[6.735,49.161],[6.534,49.395],[6.344,49.453],[6.487,49.798],[6.256,49.872],[6.138,49.974],[6.108,50.094],[6.175,50.233],[6.364,50.316],[6.341,50.452],[6.179,50.523],[6.236,50.597],[5.994,50.75],[6.048,50.905],[5.858,51.03],[6.13,51.147],[6.076,51.224],[6.199,51.45],[5.949,51.803],[6.167,51.881],[6.356,51.825],[6.742,51.911],[6.802,51.98],[6.725,52.08],[7.02,52.266],[7.002,52.419],[6.749,52.464],[6.692,52.53],[6.748,52.634],[7.013,52.634],[7.179,52.966],[7.197,53.282],[7.053,53.376],[7.107,53.557],[7.206,53.655],[8.009,53.691],[8.167,53.543],[8.108,53.468],[8.245,53.445],[8.334,53.606],[8.493,53.514],[8.495,53.394],[8.528,53.781],[8.619,53.875],[9.206,53.856],[9.585,53.6],[9.784,53.555],[9.631,53.6],[9.312,53.859],[8.978,53.926],[8.904,54],[8.907,54.261],[8.78,54.313],[8.645,54.295],[8.648,54.398],[8.952,54.468],[8.957,54.538],[8.682,54.792],[8.67,54.903],[9.255,54.808],[9.616,54.855],[9.892,54.781],[10.022,54.674],[10.029,54.581],[9.869,54.472],[10.143,54.488],[10.212,54.409],[10.36,54.438],[10.732,54.316],[11.013,54.379],[11.064,54.281],[11.009,54.181],[10.811,54.075],[10.918,53.995],[11.4,53.945],[11.796,54.145],[12.111,54.168],[12.575,54.467],[13.029,54.411],[13.147,54.283],[13.448,54.141],[13.724,54.153],[13.866,53.853],[14.259,53.73],[14.411,53.199],[14.129,52.878],[14.619,52.529],[14.555,52.36],[14.68,52.25],[14.753,52.082],[14.602,51.832],[14.725,51.662],[14.725,51.524],[14.936,51.435],[15.017,51.253],[14.964,51.095],[14.767,50.818],[14.614,50.856],[14.624,50.915],[14.546,50.994],[14.32,51.038],[14.256,51.002],[14.369,50.899],[13.557,50.705],[13.436,50.601],[13.375,50.622],[13.181,50.51],[13.016,50.49],[12.943,50.406],[12.549,50.393],[12.277,50.181],[12.135,50.311],[12.09,50.269],[12.208,50.098],[12.512,49.896],[12.391,49.74],[12.632,49.461],[13.289,49.097],[13.401,48.978],[13.548,48.96],[13.77,48.816],[13.815,48.767],[13.785,48.587],[13.675,48.523],[13.487,48.582],[13.375,48.361],[12.897,48.204],[12.76,48.107],[12.954,47.891],[12.898,47.722],[13.054,47.655],[13.014,47.478],[12.809,47.542],[12.771,47.639],[12.686,47.669],[12.483,47.637],[12.209,47.718],[12.186,47.62],[11.717,47.583],[11.298,47.425],[11.042,47.393],[10.873,47.52],[10.439,47.552],[10.369,47.366],[10.183,47.279],[10.2,47.363],[10.066,47.393],[9.972,47.505],[9.749,47.576],[9.524,47.524]]],[[[14.211,53.95],[14.214,53.871],[13.926,53.879],[13.922,53.997],[13.827,54.06],[13.828,54.127],[14.211,53.95]]]]}},{"type":"Feature","properties":{"name":"Georgia","iso":"GE","ua":false},"geometry":{"type":"Polygon","coordinates":[[[43.439,41.107],[43.402,41.177],[43.205,41.199],[43.149,41.307],[42.754,41.579],[42.607,41.579],[42.466,41.44],[41.926,41.496],[41.824,41.432],[41.51,41.517],[41.702,41.705],[41.763,41.97],[41.489,42.659],[41.419,42.738],[41.129,42.828],[41.062,42.931],[40.837,43.063],[40.462,43.146],[39.978,43.42],[40.15,43.57],[40.648,43.534],[41.083,43.374],[41.358,43.333],[41.581,43.219],[42.419,43.224],[42.566,43.155],[42.761,43.17],[42.992,43.092],[43.089,42.989],[43.783,42.747],[43.738,42.617],[43.826,42.572],[43.957,42.567],[44.506,42.749],[44.644,42.735],[44.771,42.617],[44.871,42.756],[45.16,42.675],[45.344,42.53],[45.656,42.518],[45.728,42.475],[45.639,42.205],[45.954,42.035],[46.43,41.891],[46.303,41.757],[46.202,41.737],[46.191,41.625],[46.673,41.287],[46.626,41.16],[46.458,41.07],[46.171,41.198],[46.031,41.167],[45.793,41.224],[45.696,41.289],[45.716,41.338],[45.281,41.45],[44.976,41.277],[44.811,41.259],[44.841,41.211],[44.227,41.213],[43.439,41.107]]]}},{"type":"Feature","properties":{"name":"Estonia","iso":"EE","ua":false},"geometry":{"type":"MultiPolygon","coordinates":[[[[27.352,57.528],[26.966,57.609],[26.462,57.544],[26.298,57.601],[25.991,57.838],[25.283,58.048],[25.258,57.996],[25.111,58.063],[24.323,57.871],[24.464,58.106],[24.488,58.262],[24.55,58.305],[24.529,58.354],[24.337,58.381],[24.115,58.266],[23.768,58.361],[23.692,58.506],[23.509,58.659],[23.681,58.787],[23.504,58.79],[23.432,58.921],[23.515,58.999],[23.468,59.032],[23.517,59.108],[23.494,59.196],[24.083,59.292],[24.054,59.372],[24.38,59.473],[25.444,59.521],[25.521,59.559],[25.509,59.639],[26.625,59.554],[26.975,59.451],[27.893,59.414],[28.012,59.484],[28.151,59.374],[27.898,59.278],[27.758,59.052],[27.434,58.787],[27.531,58.435],[27.502,58.221],[27.673,57.935],[27.779,57.871],[27.542,57.799],[27.4,57.667],[27.352,57.528]]],[[[22.617,58.621],[22.964,58.606],[23.323,58.451],[23.127,58.436],[22.73,58.231],[22.372,58.217],[22.269,58.161],[22.152,57.967],[21.997,57.931],[21.986,57.995],[22.188,58.154],[21.882,58.262],[21.854,58.302],[21.984,58.387],[21.862,58.497],[22.267,58.508],[22.328,58.581],[22.617,58.621]]]]}},{"type":"Feature","properties":{"name":"Czechia","iso":"CZ","ua":false},"geometry":{"type":"Polygon","coordinates":[[[18.832,49.511],[18.596,49.491],[18.161,49.257],[18.086,49.065],[17.758,48.888],[17.483,48.828],[17.136,48.841],[16.953,48.599],[16.884,48.704],[16.544,48.796],[16.367,48.739],[16.057,48.755],[15.825,48.864],[14.993,49.001],[14.923,48.771],[14.786,48.747],[14.691,48.599],[14.19,48.579],[14.049,48.602],[13.989,48.692],[13.548,48.96],[13.441,48.956],[12.917,49.33],[12.813,49.329],[12.681,49.415],[12.391,49.74],[12.512,49.896],[12.208,50.098],[12.09,50.302],[12.277,50.181],[12.549,50.393],[12.943,50.406],[13.016,50.49],[13.181,50.51],[13.375,50.622],[13.436,50.601],[13.557,50.705],[14.369,50.899],[14.256,51.002],[14.283,51.029],[14.546,50.994],[14.624,50.915],[14.614,50.856],[14.723,50.815],[14.983,50.887],[14.994,51.014],[15.259,50.959],[15.354,50.812],[15.731,50.74],[16.007,50.612],[16.282,50.656],[16.36,50.621],[16.42,50.574],[16.379,50.517],[16.21,50.424],[16.639,50.102],[16.99,50.237],[16.88,50.427],[17.152,50.378],[17.415,50.255],[17.702,50.307],[17.735,50.231],[17.589,50.157],[17.627,50.116],[17.831,49.983],[18.028,50.035],[18.305,49.914],[18.562,49.879],[18.595,49.758],[18.807,49.614],[18.832,49.511]]]}},{"type":"Feature","properties":{"name":"Croatia","iso":"HR","ua":false},"geometry":{"type":"MultiPolygon","coordinates":[[[[13.578,45.517],[13.879,45.428],[13.993,45.509],[14.37,45.481],[14.569,45.657],[14.793,45.478],[15.339,45.467],[15.284,45.58],[15.354,45.66],[15.277,45.733],[15.652,45.862],[15.676,45.984],[15.609,46.172],[16.067,46.371],[16.227,46.373],[16.237,46.484],[16.321,46.535],[16.748,46.416],[17.311,45.996],[17.607,45.914],[17.807,45.79],[18.358,45.753],[18.534,45.796],[18.666,45.907],[18.905,45.932],[18.839,45.836],[18.947,45.656],[18.918,45.601],[19.064,45.515],[19.005,45.4],[19.33,45.268],[19.401,45.189],[19.137,45.196],[19.063,45.137],[19.085,44.927],[18.941,44.865],[18.788,44.915],[18.663,45.077],[17.996,45.142],[17.813,45.078],[17.654,45.163],[17.503,45.12],[17.125,45.172],[16.919,45.277],[16.791,45.197],[16.531,45.217],[16.293,45.009],[16.028,45.19],[15.788,45.179],[15.737,44.766],[16.103,44.521],[16.214,44.215],[16.3,44.125],[17.085,43.517],[17.274,43.446],[17.293,43.306],[17.65,43.007],[17.585,42.938],[16.903,43.392],[16.394,43.543],[15.986,43.52],[15.942,43.657],[15.499,43.909],[15.186,44.172],[15.123,44.257],[15.471,44.272],[14.981,44.603],[14.895,44.707],[14.907,44.971],[14.855,45.081],[14.55,45.298],[14.313,45.338],[14.236,45.16],[13.966,44.836],[13.861,44.837],[13.629,45.108],[13.517,45.482],[13.578,45.517]]],[[[16.651,42.997],[17.188,42.917],[16.851,42.896],[16.696,42.934],[16.651,42.997]]],[[[17.194,43.126],[16.679,43.123],[16.376,43.214],[17.194,43.126]]],[[[16.785,43.271],[16.423,43.317],[16.449,43.387],[16.891,43.315],[16.785,43.271]]],[[[15.231,44.062],[15.247,44.027],[15.066,44.158],[15.231,44.062]]],[[[14.81,44.977],[14.687,44.956],[14.438,45.099],[14.571,45.225],[14.81,44.977]]],[[[14.831,44.759],[14.857,44.715],[14.66,44.8],[14.754,44.845],[14.831,44.759]]],[[[15.188,44.336],[15.163,44.309],[14.913,44.486],[14.742,44.697],[15.24,44.35],[15.188,44.336]]],[[[15.189,43.922],[15.136,43.907],[14.865,44.168],[15.189,43.922]]],[[[15.371,43.974],[15.437,43.9],[15.27,44.011],[15.371,43.974]]],[[[14.488,44.66],[14.48,44.621],[14.42,44.67],[14.312,44.9],[14.34,45.02],[14.286,45.145],[14.331,45.165],[14.467,44.97],[14.488,44.66]]],[[[17.608,42.769],[17.744,42.7],[17.344,42.79],[17.608,42.769]]],[[[18.436,42.56],[18.517,42.433],[17.824,42.797],[17.045,43.015],[17.22,43.026],[17.724,42.851],[17.668,42.897],[17.802,42.902],[18.436,42.56]]]]}},{"type":"Feature","properties":{"name":"Bulgaria","iso":"BG","ua":false},"geometry":{"type":"Polygon","coordinates":[[[28.014,41.969],[27.535,41.921],[27.244,42.093],[26.615,41.965],[26.511,41.826],[26.36,41.802],[26.321,41.717],[26.107,41.726],[26.066,41.673],[26.144,41.522],[26.135,41.386],[25.923,41.312],[25.251,41.244],[24.994,41.365],[24.847,41.394],[24.774,41.356],[24.488,41.555],[24.056,41.527],[24.011,41.46],[23.635,41.387],[22.916,41.336],[23.004,41.74],[22.837,41.994],[22.583,42.105],[22.344,42.314],[22.524,42.441],[22.436,42.629],[22.467,42.842],[22.706,42.884],[22.977,43.188],[22.499,43.519],[22.37,43.781],[22.399,43.97],[22.597,44.075],[22.627,44.194],[22.705,44.238],[23.029,44.078],[22.868,43.948],[22.919,43.834],[23.225,43.874],[25.497,43.671],[25.819,43.767],[26.216,44.007],[27.087,44.167],[27.425,44.021],[27.739,43.956],[27.884,43.987],[28.05,43.822],[28.222,43.773],[28.585,43.742],[28.562,43.501],[28.465,43.389],[28.134,43.396],[27.929,43.186],[27.889,42.75],[27.754,42.707],[27.485,42.468],[27.708,42.35],[28.014,41.969]]]}},{"type":"Feature","properties":{"name":"Bosnia and Herz.","iso":"BA","ua":false},"geometry":{"type":"Polygon","coordinates":[[[19.349,44.881],[19.292,44.697],[19.151,44.527],[19.118,44.36],[19.584,44.043],[19.55,43.987],[19.245,43.965],[19.488,43.704],[19.48,43.595],[18.951,43.527],[19.027,43.292],[18.851,43.346],[18.674,43.231],[18.624,43.028],[18.444,42.968],[18.466,42.777],[18.546,42.642],[18.436,42.56],[17.802,42.902],[17.585,42.938],[17.65,43.007],[17.293,43.306],[17.274,43.446],[17.085,43.517],[16.3,44.125],[16.214,44.215],[16.103,44.521],[15.737,44.766],[15.823,45.203],[16.028,45.19],[16.293,45.009],[16.531,45.217],[16.791,45.197],[16.919,45.277],[17.125,45.172],[17.503,45.12],[17.654,45.163],[17.813,45.078],[17.996,45.142],[18.663,45.077],[18.836,44.883],[19.349,44.881]]]}},{"type":"Feature","properties":{"name":"Belarus","iso":"BY","ua":false},"geometry":{"type":"Polygon","coordinates":[[[31.763,52.101],[31.079,52.077],[30.755,51.895],[30.533,51.596],[30.633,51.355],[30.545,51.265],[30.333,51.326],[30.309,51.4],[30.161,51.478],[29.346,51.383],[29.102,51.628],[28.85,51.54],[28.731,51.433],[28.648,51.457],[28.599,51.543],[28.184,51.608],[28.011,51.56],[27.859,51.592],[27.7,51.478],[27.69,51.572],[27.296,51.597],[27.142,51.752],[25.786,51.924],[25.067,51.931],[24.362,51.868],[23.978,51.591],[23.707,51.641],[23.609,51.61],[23.605,51.518],[23.545,51.71],[23.626,51.809],[23.652,52.04],[23.175,52.287],[23.411,52.516],[23.845,52.664],[23.915,52.77],[23.859,53.112],[23.599,53.599],[23.485,53.94],[24.191,53.95],[24.318,53.893],[24.768,53.975],[24.87,54.145],[25.046,54.133],[25.461,54.293],[25.527,54.215],[25.51,54.16],[25.749,54.157],[25.748,54.26],[25.547,54.332],[25.725,54.564],[25.722,54.718],[25.859,54.919],[26.175,55.003],[26.292,55.14],[26.601,55.13],[26.776,55.273],[26.458,55.342],[26.594,55.668],[26.822,55.709],[27.053,55.831],[27.577,55.799],[27.642,55.912],[27.896,56.076],[28.118,56.146],[28.284,56.056],[28.564,56.092],[28.795,55.943],[29.032,56.022],[29.375,55.939],[29.353,55.784],[29.482,55.685],[29.937,55.845],[30.234,55.845],[30.907,55.57],[30.901,55.397],[30.811,55.307],[30.978,55.05],[30.83,54.915],[30.799,54.783],[31.152,54.625],[31.075,54.492],[31.185,54.453],[31.404,54.196],[31.826,54.031],[31.754,53.81],[32.2,53.781],[32.45,53.693],[32.47,53.547],[32.706,53.419],[32.704,53.336],[32.142,53.091],[31.85,53.106],[31.668,53.201],[31.418,53.196],[31.259,53.017],[31.565,52.759],[31.519,52.699],[31.616,52.546],[31.577,52.312],[31.763,52.101]]]}},{"type":"Feature","properties":{"name":"Azerbaijan","iso":"AZ","ua":false},"geometry":{"type":"MultiPolygon","coordinates":[[[[48.869,38.435],[48.593,38.411],[48.417,38.586],[48.306,38.613],[47.996,38.854],[48.05,38.935],[48.292,39.019],[48.274,39.099],[48.125,39.172],[48.104,39.241],[48.136,39.312],[48.322,39.399],[47.996,39.684],[47.773,39.649],[47.476,39.498],[46.491,38.907],[46.49,39.069],[46.4,39.192],[46.585,39.224],[46.365,39.402],[46.478,39.475],[46.481,39.555],[46.322,39.617],[46.202,39.594],[45.58,39.978],[45.886,40.025],[45.965,40.234],[45.57,40.417],[45.454,40.532],[45.379,40.674],[45.587,40.847],[45.419,40.986],[45.071,41.076],[45.189,41.147],[45.001,41.291],[45.281,41.45],[45.716,41.338],[45.725,41.262],[45.922,41.187],[46.171,41.198],[46.431,41.077],[46.534,41.089],[46.673,41.287],[46.305,41.508],[46.182,41.657],[46.202,41.737],[46.303,41.757],[46.43,41.891],[46.538,41.87],[46.571,41.8],[46.749,41.813],[47.143,41.516],[47.318,41.282],[47.791,41.199],[47.861,41.213],[48.056,41.459],[48.391,41.602],[48.573,41.844],[48.665,41.787],[49.051,41.374],[49.226,41.026],[49.457,40.8],[49.776,40.584],[50.183,40.505],[50.307,40.412],[50.366,40.279],[49.919,40.316],[49.551,40.194],[49.324,39.608],[49.363,39.35],[49.269,39.285],[49.165,39.03],[49.121,39.004],[49.111,39.085],[49.013,39.134],[48.854,38.839],[48.869,38.435]],[[45.552,40.616],[45.534,40.664],[45.479,40.648],[45.479,40.607],[45.552,40.616]]],[[[45.024,41.027],[44.969,41.027],[44.961,41.079],[45.021,41.078],[45.024,41.027]]]]}},{"type":"Feature","properties":{"name":"Austria","iso":"AT","ua":false},"geometry":{"type":"Polygon","coordinates":[[[9.528,47.271],[9.626,47.467],[9.524,47.524],[9.749,47.576],[10.2,47.363],[10.183,47.279],[10.369,47.366],[10.439,47.552],[10.873,47.52],[11.042,47.393],[11.298,47.425],[11.717,47.583],[12.186,47.62],[12.209,47.718],[12.483,47.637],[12.686,47.669],[12.771,47.639],[12.809,47.542],[13.014,47.478],[13.054,47.655],[12.898,47.722],[12.954,47.891],[12.76,48.076],[12.814,48.161],[13.375,48.361],[13.487,48.582],[13.724,48.542],[13.785,48.587],[13.815,48.767],[13.989,48.692],[14.049,48.602],[14.691,48.599],[14.786,48.747],[14.923,48.771],[14.993,49.001],[15.825,48.864],[16.057,48.755],[16.367,48.739],[16.544,48.796],[16.884,48.704],[16.953,48.599],[16.865,48.387],[17.147,48.006],[17.03,47.837],[17.067,47.708],[16.786,47.679],[16.591,47.751],[16.421,47.674],[16.64,47.609],[16.677,47.536],[16.623,47.448],[16.443,47.4],[16.463,47.273],[16.417,47.223],[16.493,47.123],[16.461,47.022],[16.037,46.845],[15.977,46.801],[15.958,46.678],[15.767,46.711],[15.439,46.63],[14.893,46.606],[14.55,46.4],[12.479,46.673],[12.154,46.935],[12.169,47.082],[11.776,46.986],[11.244,46.976],[10.927,46.769],[10.453,46.865],[10.415,46.964],[10.349,46.985],[10.133,46.852],[9.878,46.938],[9.845,47.007],[9.58,47.057],[9.611,47.107],[9.528,47.271]]]}},{"type":"Feature","properties":{"name":"Armenia","iso":"AM","ua":false},"geometry":{"type":"MultiPolygon","coordinates":[[[[44.768,39.704],[44.289,40.04],[44.005,40.014],[43.666,40.126],[43.71,40.167],[43.569,40.482],[43.723,40.72],[43.632,40.929],[43.439,41.107],[44.227,41.213],[44.841,41.211],[44.811,41.259],[45.001,41.291],[45.189,41.147],[45.071,41.076],[45.419,40.986],[45.587,40.847],[45.379,40.674],[45.454,40.532],[45.57,40.417],[45.965,40.234],[45.886,40.025],[45.58,39.978],[46.202,39.594],[46.322,39.617],[46.481,39.555],[46.478,39.475],[46.365,39.402],[46.585,39.224],[46.4,39.192],[46.49,39.069],[46.491,38.907],[46.114,38.878],[45.952,39.178],[45.977,39.244],[45.766,39.378],[45.796,39.488],[45.75,39.563],[45.457,39.494],[45.253,39.595],[45.153,39.583],[45.125,39.696],[45.032,39.765],[44.768,39.704]],[[45.024,41.027],[45.021,41.078],[44.961,41.079],[44.969,41.027],[45.024,41.027]]],[[[45.552,40.616],[45.479,40.607],[45.479,40.648],[45.534,40.664],[45.552,40.616]]]]}},{"type":"Feature","properties":{"name":"Albania","iso":"AL","ua":false},"geometry":{"type":"Polygon","coordinates":[[[19.342,41.869],[19.361,42.069],[19.281,42.173],[19.703,42.648],[19.788,42.476],[20.064,42.547],[20.241,42.339],[20.523,42.171],[20.581,41.917],[20.505,41.706],[20.516,41.575],[20.449,41.521],[20.489,41.273],[20.709,40.928],[20.933,40.903],[21.031,40.622],[20.95,40.494],[20.806,40.445],[20.657,40.117],[20.311,39.979],[20.382,39.803],[20.306,39.797],[20.207,39.654],[20.001,39.709],[19.852,40.044],[19.485,40.21],[19.322,40.407],[19.459,40.405],[19.337,40.664],[19.461,40.933],[19.441,41.425],[19.576,41.64],[19.578,41.788],[19.342,41.869]]]}}]}