{"type":"FeatureCollection","features":[{"type":"Feature","properties":{"id":"UA.KR","name":"АР Крим","name_ru":"АР Крым","short":"Крим","name_en":"Crimea","centroid":[34.3855,45.3301]},"geometry":{"type":"Polygon","coordinates":[[[34.0572,46.01193],[34.06982,46.04888],[34.21117,46.0288],[34.32855,46.028],[34.42699,46.1019],[34.51912,46.05531],[34.55951,46.11555],[34.61882,46.08181],[34.61378,46.03281],[34.50019,46.04004],[34.46359,46.02077],[34.45854,45.9798],[34.52164,45.9308],[34.60242,45.94847],[34.66426,46.01032],[34.65416,46.0794],[34.73367,46.08904],[34.84347,46.0529],[34.89648,45.87859],[34.97473,45.74364],[35.04162,45.65528],[35.20443,45.50427],[35.28142,45.42474],[35.40889,45.33157],[35.48082,45.29783],[35.55655,45.30024],[35.66887,45.33157],[35.71178,45.32755],[35.74712,45.3886],[35.84052,45.44081],[35.89983,45.38378],[35.99197,45.35566],[36.06769,45.39502],[36.06138,45.42474],[36.12196,45.45205],[36.23176,45.46651],[36.34913,45.4625],[36.42233,45.43679],[36.48165,45.44724],[36.52078,45.41671],[36.58893,45.43358],[36.63436,45.38538],[36.60029,45.34281],[36.54097,45.33799],[36.41602,45.2665],[36.43243,45.2416],[36.40719,45.16288],[36.45389,45.06167],[36.37564,45.03596],[36.29108,45.03998],[36.22924,45.01347],[36.05886,45.03355],[35.97051,44.9966],[35.87333,44.98375],[35.84683,45.02151],[35.74965,45.08255],[35.60829,45.12834],[35.53888,45.12513],[35.44296,45.08978],[35.37986,45.02392],[35.40762,44.98777],[35.32559,44.95965],[35.24482,44.95403],[35.24355,44.91146],[35.14511,44.88816],[35.07948,44.79097],[35.01386,44.82712],[34.94065,44.83997],[34.88134,44.81748],[34.716,44.81426],[34.46233,44.72028],[34.40175,44.67289],[34.35884,44.58774],[34.25661,44.50179],[34.18088,44.49296],[34.12914,44.42548],[33.94614,44.38612],[33.90323,44.39898],[33.78712,44.38211],[33.79469,44.39416],[33.92721,44.4295],[33.86158,44.52428],[33.79721,44.49778],[33.71391,44.51625],[33.66848,44.58614],[33.75304,44.62068],[33.77323,44.67369],[33.72527,44.70422],[33.61926,44.7002],[33.61295,44.74197],[33.66469,44.78213],[33.59276,44.80221],[33.5713,44.84398],[33.61547,44.90744],[33.60538,45.01347],[33.55363,45.09782],[33.50062,45.15886],[33.42616,45.19742],[33.29743,45.15806],[33.21035,45.19019],[33.04249,45.29622],[33.04249,45.33638],[32.90114,45.35727],[32.75095,45.35647],[32.64241,45.30425],[32.47834,45.33799],[32.46193,45.37976],[32.53135,45.44322],[32.6361,45.49382],[32.76736,45.53961],[32.82794,45.53961],[32.90618,45.62636],[33.02734,45.67938],[33.15734,45.72115],[33.16491,45.75569],[33.25199,45.74605],[33.38199,45.79023],[33.41733,45.81433],[33.55994,45.84806],[33.61421,45.88501],[33.68489,45.89626],[33.74168,45.93723],[33.63188,45.94847],[33.61295,45.99747],[33.6079,46.1019],[33.65586,46.18624],[33.74673,46.14286],[33.81993,46.15571],[33.88303,46.13804],[33.97264,46.08824],[33.99031,46.05531],[34.04206,46.04647],[34.0572,46.01193]]]}},{"type":"Feature","properties":{"id":"UA.VI","name":"Вінницька область","name_ru":"Винницкая область","short":"Вінницька","name_en":"Vinnytsya","centroid":[28.6926,48.927]},"geometry":{"type":"Polygon","coordinates":[[[29.51246,49.65955],[29.55915,49.63706],[29.51498,49.60734],[29.56294,49.55513],[29.57556,49.46677],[29.6109,49.45552],[29.51624,49.38323],[29.55537,49.33102],[29.61721,49.32057],[29.65633,49.25712],[29.74594,49.24105],[29.74847,49.18804],[29.66264,49.1045],[29.66517,49.0571],[29.71187,49.0057],[29.67022,48.94625],[29.75099,48.91814],[29.74342,48.87717],[29.78128,48.84263],[29.78254,48.80167],[29.88098,48.77917],[29.87467,48.73259],[29.96428,48.6868],[30.01098,48.64021],[30.04127,48.53498],[29.98069,48.49402],[29.8936,48.45225],[29.80778,48.3928],[29.79264,48.34059],[29.78759,48.23537],[29.6841,48.20484],[29.68536,48.15343],[29.60585,48.15183],[29.58061,48.12853],[29.50236,48.12773],[29.42285,48.14379],[29.39635,48.1205],[29.28276,48.11889],[29.16917,48.16548],[29.0884,48.20966],[29.04927,48.1462],[28.9685,48.16628],[28.95588,48.09881],[28.85618,48.08114],[28.85491,48.1213],[28.65551,48.1454],[28.57726,48.17191],[28.53308,48.12692],[28.44979,48.08837],[28.42581,48.17592],[28.38164,48.17592],[28.3463,48.24902],[28.21757,48.20886],[28.18854,48.25545],[28.10776,48.23376],[28.09641,48.30204],[28.04971,48.32694],[27.92729,48.32854],[27.86166,48.3679],[27.8869,48.3904],[27.76322,48.45867],[27.68244,48.44341],[27.56633,48.47393],[27.53352,48.4643],[27.47041,48.51008],[27.45779,48.59282],[27.3745,48.63137],[27.40605,48.686],[27.41867,48.86352],[27.38712,48.92698],[27.41993,48.96393],[27.38964,48.99284],[27.43003,49.05951],[27.49439,49.06192],[27.50702,49.12779],[27.57138,49.11815],[27.6042,49.16153],[27.65973,49.16314],[27.75312,49.14386],[27.8036,49.19286],[27.86923,49.17197],[27.87049,49.28443],[27.75186,49.4997],[27.79603,49.52541],[27.77205,49.58324],[27.8238,49.63947],[27.77584,49.65473],[27.82506,49.73426],[27.897,49.76719],[28.0068,49.78326],[28.06359,49.76799],[28.16456,49.78968],[28.34882,49.79691],[28.38668,49.77442],[28.43969,49.82422],[28.50406,49.80816],[28.55959,49.81619],[28.62522,49.78245],[28.64162,49.8186],[28.76152,49.79932],[28.77793,49.84671],[28.87637,49.8676],[28.89278,49.89812],[28.9786,49.83547],[29.00132,49.75916],[29.03034,49.74229],[28.98617,49.69972],[28.98869,49.66437],[29.02908,49.59449],[29.17422,49.5985],[29.30043,49.59047],[29.2979,49.63706],[29.3711,49.62742],[29.45819,49.66437],[29.51246,49.65955]]]}},{"type":"Feature","properties":{"id":"UA.VO","name":"Волинська область","name_ru":"Волынская область","short":"Волинська","name_en":"Volyn","centroid":[24.8822,51.2012]},"geometry":{"type":"Polygon","coordinates":[[[25.62652,51.93761],[25.64671,51.91592],[25.7338,51.90789],[25.66186,51.85487],[25.65681,51.81471],[25.71739,51.77696],[25.63535,51.66691],[25.55332,51.6388],[25.61516,51.59944],[25.5773,51.51991],[25.64545,51.49903],[25.67322,51.42191],[25.73253,51.3946],[25.85622,51.38175],[25.84991,51.35123],[25.93068,51.295],[25.96476,51.24841],[26.01145,51.23877],[26.07329,51.18736],[26.03291,51.13113],[25.93951,51.12712],[25.96349,51.08615],[26.04805,51.08374],[26.10737,51.04438],[26.11242,51.00904],[26.06825,50.97691],[25.98621,50.96727],[25.99631,50.87168],[26.02912,50.82509],[25.91553,50.83794],[25.88398,50.79456],[25.87641,50.69255],[25.8335,50.66122],[25.73001,50.67407],[25.70477,50.72709],[25.58613,50.70942],[25.47886,50.67407],[25.42206,50.67809],[25.37915,50.64596],[25.30721,50.62427],[25.32488,50.55921],[25.27187,50.53832],[25.18605,50.5584],[25.11285,50.54877],[25.1545,50.5086],[25.15198,50.45478],[25.20625,50.3857],[25.11412,50.30939],[25.04849,50.31823],[24.95636,50.39052],[24.93238,50.36],[24.82889,50.36562],[24.78597,50.34554],[24.71151,50.35357],[24.7153,50.38892],[24.59035,50.43551],[24.59035,50.507],[24.55249,50.51101],[24.50832,50.56724],[24.45531,50.55198],[24.42123,50.60339],[24.33668,50.61544],[24.31143,50.58973],[24.23697,50.60178],[24.14736,50.66122],[24.08931,50.64435],[24.01863,50.72468],[24.02368,50.76966],[23.97446,50.77609],[23.99465,50.84276],[24.10698,50.83874],[24.15241,50.85963],[24.02873,50.91425],[23.97572,50.95682],[23.93155,51.02109],[23.91262,51.07972],[23.87223,51.08213],[23.87097,51.15041],[23.74855,51.21307],[23.72457,51.26769],[23.65768,51.28295],[23.64127,51.31106],[23.70059,51.42191],[23.66651,51.50786],[23.69049,51.5898],[23.67787,51.64602],[23.83815,51.65888],[23.84446,51.6388],[23.94543,51.6388],[23.953,51.5914],[24.02747,51.58417],[24.1196,51.62112],[24.15998,51.67012],[24.28114,51.72073],[24.35434,51.7874],[24.33541,51.83479],[24.38716,51.9103],[24.49065,51.91271],[24.60424,51.93038],[24.81248,51.90387],[24.94626,51.92717],[24.99548,51.9119],[25.08635,51.96251],[25.2845,51.9834],[25.37032,51.94805],[25.494,51.93199],[25.56846,51.95207],[25.62652,51.93761]]]}},{"type":"Feature","properties":{"id":"UA.DP","name":"Дніпропетровська область","name_ru":"Днепропетровская область","short":"Дніпропетровська","name_en":"Dnipropetrovs'k","centroid":[34.8574,48.2757]},"geometry":{"type":"Polygon","coordinates":[[[35.06181,49.13582],[35.21074,49.13341],[35.21831,49.09727],[35.45811,48.99766],[35.51742,48.96071],[35.59694,48.95268],[35.72188,48.96232],[35.82411,48.91252],[35.84304,48.93661],[36.00459,48.96875],[36.03866,48.83058],[36.13332,48.79845],[36.15856,48.77436],[36.15225,48.70849],[36.27972,48.65226],[36.25826,48.59844],[36.3769,48.55426],[36.47282,48.65387],[36.60912,48.59121],[36.68989,48.61933],[36.73407,48.61852],[36.8161,48.55667],[36.87668,48.54302],[36.81736,48.47313],[36.82872,48.40807],[36.80096,48.3904],[36.80096,48.30123],[36.85397,48.30605],[36.89561,48.28115],[36.92212,48.19199],[36.85901,48.17512],[36.89309,48.06829],[36.85397,48.03375],[36.76814,48.0474],[36.65077,48.09158],[36.58893,48.07471],[36.59524,47.95021],[36.6432,47.91406],[36.55485,47.89237],[36.59271,47.83213],[36.46903,47.79919],[36.38447,47.81767],[36.33904,47.79518],[36.22797,47.80241],[36.21283,47.83213],[36.14215,47.81606],[36.12322,47.90522],[36.09798,47.90522],[36.05633,48.03134],[36.01216,48.02652],[35.98061,48.06829],[35.83925,48.03535],[35.83294,48.0715],[35.76353,48.0723],[35.73072,48.10925],[35.57043,48.0466],[35.38995,48.08515],[35.33821,48.10443],[35.25239,48.10604],[35.08579,48.08515],[35.03152,48.05624],[34.95328,48.05784],[34.8725,48.01768],[34.88639,47.94539],[34.82076,47.86908],[34.89522,47.80241],[34.8826,47.73654],[34.94318,47.74136],[34.93939,47.69397],[34.89396,47.64657],[34.92551,47.59838],[34.91415,47.54456],[34.93687,47.49636],[34.87503,47.48592],[34.77154,47.48753],[34.66174,47.52608],[34.57591,47.52769],[34.29699,47.4803],[34.14807,47.44817],[34.00672,47.42246],[33.92342,47.48994],[33.80857,47.46985],[33.65081,47.457],[33.59149,47.48833],[33.58645,47.57669],[33.4981,47.56785],[33.488,47.52689],[33.44257,47.49877],[33.37189,47.49476],[33.34413,47.46022],[33.22297,47.51082],[33.20656,47.54054],[33.09297,47.56143],[33.09423,47.5791],[32.98948,47.59918],[32.97434,47.69878],[33.00968,47.72208],[33.07152,47.72047],[33.06521,47.80883],[33.09423,47.89639],[33.02356,47.90362],[33.03365,47.9743],[33.17753,48.0482],[33.30248,48.08034],[33.33024,48.12773],[33.46402,48.15424],[33.5814,48.20484],[33.52965,48.24741],[33.49558,48.31328],[33.51577,48.37754],[33.51198,48.52534],[33.70003,48.55747],[33.79974,48.59764],[33.801,48.65065],[33.72275,48.69323],[33.66848,48.69483],[33.62557,48.73098],[33.69877,48.78319],[33.82372,48.76873],[33.85905,48.74463],[33.91459,48.81452],[33.93478,48.87396],[33.99662,48.84344],[34.05846,48.83621],[34.15564,48.79845],[34.18088,48.75668],[34.25156,48.74383],[34.31214,48.71331],[34.36767,48.74785],[34.3336,48.79604],[34.38029,48.83058],[34.33738,48.87316],[34.3967,48.99124],[34.45223,49.03783],[34.60368,49.03542],[34.62387,49.08923],[34.75008,49.1045],[34.78794,49.14627],[34.85988,49.16876],[35.01007,49.1543],[35.06181,49.13582]]]}},{"type":"Feature","properties":{"id":"UA.DT","name":"Донецька область","name_ru":"Донецкая область","short":"Донецька","name_en":"Donets'k","centroid":[37.6682,48.0474]},"geometry":{"type":"Polygon","coordinates":[[[39.06008,47.86265],[38.93008,47.86827],[38.83921,47.85381],[38.76475,47.68433],[38.67514,47.69718],[38.66252,47.66344],[38.60573,47.63774],[38.4568,47.63774],[38.4669,47.60962],[38.37098,47.61123],[38.3104,47.56143],[38.29021,47.52046],[38.31167,47.45138],[38.29778,47.37587],[38.25235,47.36784],[38.22458,47.31322],[38.32555,47.30037],[38.33438,47.25297],[38.24604,47.22807],[38.23468,47.12686],[38.13876,47.07063],[38.09711,47.1116],[38.02644,47.09071],[37.90654,47.1108],[37.70334,47.07545],[37.58218,47.09071],[37.50898,47.06501],[37.42821,46.96701],[37.3121,46.87142],[37.29317,46.92122],[37.2288,46.94372],[37.14677,46.90757],[37.05968,46.88427],[37.02939,46.92122],[37.04959,46.95014],[37.13793,46.97986],[37.11774,47.02886],[37.00289,47.08107],[36.9991,47.12284],[36.87542,47.1847],[36.96377,47.20558],[36.93095,47.31241],[37.04201,47.29715],[37.11522,47.33009],[37.11017,47.359],[37.18968,47.37989],[37.25026,47.45379],[37.15434,47.45218],[37.07861,47.48431],[37.01551,47.53894],[36.94736,47.55902],[36.90192,47.53653],[36.82241,47.60882],[36.73028,47.64095],[36.67223,47.75421],[36.5864,47.76787],[36.59271,47.83213],[36.55485,47.89237],[36.6432,47.91406],[36.59524,47.95021],[36.58893,48.07471],[36.65077,48.09158],[36.76814,48.0474],[36.85397,48.03375],[36.89309,48.06829],[36.85901,48.17512],[36.92212,48.19199],[36.89561,48.28115],[36.85397,48.30605],[36.80096,48.30123],[36.80096,48.3904],[36.82872,48.40807],[36.81736,48.47313],[36.87668,48.54302],[36.8161,48.55667],[36.73407,48.61852],[36.70504,48.68439],[36.73281,48.69564],[36.68611,48.77436],[36.91959,48.79765],[36.98775,48.77837],[37.08366,48.84665],[37.14677,48.84424],[37.23385,48.91252],[37.30831,48.94545],[37.30326,48.98079],[37.37773,49.00811],[37.39287,49.05469],[37.51151,49.07317],[37.49762,49.10932],[37.58092,49.13502],[37.55947,49.18964],[37.51782,49.21535],[37.57587,49.24828],[37.65665,49.24507],[37.7879,49.22097],[37.85984,49.22338],[37.87372,49.25872],[37.93935,49.20812],[37.9078,49.16715],[37.95955,49.14707],[38.08323,49.1294],[38.05673,49.06514],[38.08702,49.01533],[38.0075,48.95429],[38.21196,48.94384],[38.20944,48.84826],[38.27759,48.82094],[38.24478,48.77516],[38.29273,48.72536],[38.28769,48.68359],[38.22206,48.65708],[38.29147,48.49884],[38.27002,48.46992],[38.3104,48.43859],[38.41389,48.42092],[38.41894,48.38477],[38.477,48.35264],[38.41137,48.32613],[38.4038,48.27312],[38.54515,48.27151],[38.58932,48.20966],[38.58554,48.17351],[38.65243,48.1462],[38.80009,48.1205],[38.82154,48.01848],[39.03988,48.00724],[39.04115,47.95985],[39.0727,47.94699],[39.06008,47.86265]]]}},{"type":"Feature","properties":{"id":"UA.ZT","name":"Житомирська область","name_ru":"Житомирская область","short":"Житомирська","name_en":"Zhytomyr","centroid":[28.4859,50.6432]},"geometry":{"type":"Polygon","coordinates":[[[29.36227,51.39621],[29.40266,51.34078],[29.35975,51.29098],[29.30548,51.29018],[29.28907,51.2468],[29.31052,51.19298],[29.41528,51.14639],[29.52003,51.07571],[29.48595,51.03956],[29.47333,50.94959],[29.53139,50.88453],[29.50993,50.79456],[29.60333,50.7544],[29.59702,50.70701],[29.49731,50.67568],[29.52003,50.61062],[29.48722,50.52788],[29.52508,50.51664],[29.51877,50.45719],[29.59323,50.42828],[29.65886,50.37606],[29.67022,50.3351],[29.71565,50.33028],[29.69041,50.27646],[29.7106,50.23549],[29.67653,50.19372],[29.68031,50.10536],[29.71818,50.07645],[29.70303,50.00496],[29.74973,49.96479],[29.69798,49.92865],[29.6374,49.85635],[29.47964,49.78326],[29.47459,49.71176],[29.51877,49.71337],[29.51246,49.65955],[29.45819,49.66437],[29.3711,49.62742],[29.2979,49.63706],[29.30043,49.59047],[29.17422,49.5985],[29.02908,49.59449],[28.98869,49.66437],[28.98617,49.69972],[29.03034,49.74229],[29.00132,49.75916],[28.9786,49.83547],[28.89278,49.89812],[28.87637,49.8676],[28.77793,49.84671],[28.76152,49.79932],[28.64162,49.8186],[28.62522,49.78245],[28.55959,49.81619],[28.50406,49.80816],[28.43969,49.82422],[28.38668,49.77442],[28.34882,49.79691],[28.16456,49.78968],[28.06359,49.76799],[28.0068,49.78326],[27.897,49.76719],[27.82506,49.73426],[27.72788,49.77844],[27.65215,49.79289],[27.61555,49.8925],[27.54993,49.90133],[27.57264,49.96238],[27.54993,50.00897],[27.61555,50.00576],[27.68497,50.06761],[27.62691,50.08368],[27.62313,50.12464],[27.68623,50.15115],[27.59662,50.213],[27.59284,50.26039],[27.5108,50.22746],[27.41362,50.27726],[27.40857,50.31903],[27.33159,50.33911],[27.33032,50.36321],[27.25208,50.39615],[27.30761,50.49334],[27.20916,50.53752],[27.19781,50.56644],[27.22431,50.58009],[27.21421,50.67488],[27.28489,50.72548],[27.24198,50.86766],[27.25586,50.92228],[27.20916,51.00984],[27.27984,51.0484],[27.3278,51.05081],[27.36819,51.10623],[27.3644,51.148],[27.40605,51.20343],[27.46789,51.23636],[27.44013,51.3191],[27.52973,51.36488],[27.48808,51.39219],[27.53226,51.43718],[27.61177,51.4179],[27.57517,51.48778],[27.67992,51.52393],[27.76069,51.4926],[27.82001,51.58739],[27.83389,51.6404],[27.90205,51.63639],[27.92476,51.58658],[27.96641,51.56891],[28.08252,51.57052],[28.17213,51.65084],[28.27436,51.69743],[28.29708,51.63317],[28.36901,51.5673],[28.4195,51.56489],[28.48891,51.59783],[28.60124,51.56409],[28.68075,51.56249],[28.67065,51.5167],[28.71356,51.44601],[28.78424,51.48457],[28.82462,51.5424],[28.9054,51.57453],[29.03918,51.58016],[29.10354,51.63076],[29.16034,51.65084],[29.21713,51.57694],[29.26509,51.55044],[29.24111,51.49742],[29.31684,51.44922],[29.36227,51.39621]]]}},{"type":"Feature","properties":{"id":"UA.ZK","name":"Закарпатська область","name_ru":"Закарпатская область","short":"Закарпатська","name_en":"Transcarpathia","centroid":[23.2815,48.4059]},"geometry":{"type":"Polygon","coordinates":[[[22.89791,49.01453],[22.92062,48.97999],[22.88529,48.94866],[22.89791,48.91332],[22.96227,48.88199],[22.97868,48.84183],[23.12508,48.8587],[23.17935,48.79765],[23.1844,48.76793],[23.29167,48.75909],[23.36109,48.76472],[23.37497,48.7358],[23.47468,48.72054],[23.54535,48.72616],[23.60972,48.70768],[23.68418,48.637],[23.76243,48.64342],[23.77884,48.59683],[23.83815,48.55426],[23.9,48.55908],[23.89495,48.48197],[23.95048,48.46349],[23.99465,48.51329],[24.14105,48.54221],[24.14105,48.43056],[24.18396,48.38638],[24.266,48.36871],[24.31143,48.41289],[24.35308,48.37513],[24.47803,48.30686],[24.4755,48.26589],[24.5323,48.24581],[24.49696,48.19119],[24.52094,48.15183],[24.59793,48.10443],[24.61433,48.05865],[24.56637,48.03294],[24.57521,47.96547],[24.50706,47.95422],[24.42376,47.97752],[24.3657,47.91808],[24.22309,47.90442],[24.12717,47.91245],[24.09309,47.94298],[23.95174,47.96948],[23.8533,47.93976],[23.81922,47.98394],[23.72583,47.9968],[23.66651,47.97993],[23.60719,48.01125],[23.55419,48.00643],[23.48603,47.97189],[23.42041,47.97832],[23.2677,48.05463],[23.26138,48.0956],[23.14149,48.11006],[23.10867,48.08997],[23.07586,48.00965],[22.92441,48.01848],[22.90548,47.96145],[22.84616,47.98876],[22.88024,48.04098],[22.82597,48.1197],[22.74519,48.12371],[22.6783,48.09479],[22.59879,48.11327],[22.59248,48.15905],[22.52181,48.23697],[22.4423,48.25304],[22.37288,48.23858],[22.34007,48.29963],[22.22017,48.42735],[22.15076,48.41048],[22.17347,48.56711],[22.1924,48.60326],[22.2391,48.62093],[22.30221,48.68278],[22.35395,48.69724],[22.38424,48.87396],[22.47763,48.99847],[22.542,49.00489],[22.56093,49.08602],[22.60258,49.09486],[22.67452,49.04345],[22.7982,49.04907],[22.89791,49.01453]]]}},{"type":"Feature","properties":{"id":"UA.ZP","name":"Запорізька область","name_ru":"Запорожская область","short":"Запорізька","name_en":"Zaporizhzhya","centroid":[35.6971,47.2415]},"geometry":{"type":"Polygon","coordinates":[[[35.36093,46.28665],[35.2953,46.29468],[35.29277,46.38464],[35.25113,46.38946],[35.23093,46.31958],[35.16152,46.2762],[35.13501,46.23604],[35.1022,46.23925],[35.09715,46.32681],[35.0757,46.41115],[34.97473,46.44087],[34.92299,46.42882],[34.87503,46.4963],[34.78794,46.47943],[34.74629,46.51076],[34.7829,46.5469],[34.77658,46.61438],[34.6996,46.61518],[34.65795,46.64089],[34.67688,46.67703],[34.78037,46.69952],[34.78416,46.76619],[34.8359,46.77101],[34.82076,46.82564],[34.77785,46.82644],[34.75639,46.89954],[34.68698,46.90114],[34.60368,46.94532],[34.57213,46.99432],[34.55825,47.05457],[34.5166,47.09794],[34.48883,47.19996],[34.53174,47.20558],[34.48378,47.26663],[34.30962,47.2345],[34.27049,47.31402],[34.24904,47.39194],[34.14807,47.44817],[34.29699,47.4803],[34.57591,47.52769],[34.66174,47.52608],[34.77154,47.48753],[34.87503,47.48592],[34.93687,47.49636],[34.91415,47.54456],[34.92551,47.59838],[34.89396,47.64657],[34.93939,47.69397],[34.94318,47.74136],[34.8826,47.73654],[34.89522,47.80241],[34.82076,47.86908],[34.88639,47.94539],[34.8725,48.01768],[34.95328,48.05784],[35.03152,48.05624],[35.08579,48.08515],[35.25239,48.10604],[35.33821,48.10443],[35.38995,48.08515],[35.57043,48.0466],[35.73072,48.10925],[35.76353,48.0723],[35.83294,48.0715],[35.83925,48.03535],[35.98061,48.06829],[36.01216,48.02652],[36.05633,48.03134],[36.09798,47.90522],[36.12322,47.90522],[36.14215,47.81606],[36.21283,47.83213],[36.22797,47.80241],[36.33904,47.79518],[36.38447,47.81767],[36.46903,47.79919],[36.59271,47.83213],[36.5864,47.76787],[36.67223,47.75421],[36.73028,47.64095],[36.82241,47.60882],[36.90192,47.53653],[36.94736,47.55902],[37.01551,47.53894],[37.07861,47.48431],[37.15434,47.45218],[37.25026,47.45379],[37.18968,47.37989],[37.11017,47.359],[37.11522,47.33009],[37.04201,47.29715],[36.93095,47.31241],[36.96377,47.20558],[36.87542,47.1847],[36.9991,47.12284],[37.00289,47.08107],[37.11774,47.02886],[37.13793,46.97986],[37.04959,46.95014],[37.02939,46.92122],[37.05968,46.88427],[36.97134,46.85455],[36.90823,46.8176],[36.85144,46.73487],[36.8161,46.72443],[36.7164,46.77744],[36.65708,46.77905],[36.41098,46.7188],[36.25574,46.61518],[36.16739,46.65615],[36.10808,46.63848],[35.94148,46.63687],[35.73703,46.55253],[35.67392,46.48184],[35.62975,46.45292],[35.4682,46.39107],[35.36093,46.28665]]]}},{"type":"Feature","properties":{"id":"UA.IF","name":"Івано-Франківська область","name_ru":"Ивано-Франковская область","short":"Івано-Франківська","name_en":"Ivano-Frankivs'k","centroid":[24.6094,48.7073]},"geometry":{"type":"Polygon","coordinates":[[[24.70899,49.4981],[24.75947,49.39448],[24.80617,49.38564],[24.83898,49.34548],[24.80869,49.30853],[24.82384,49.26836],[24.88315,49.22418],[24.83646,49.18081],[24.8983,49.12538],[24.9715,49.11735],[24.95005,49.07478],[24.90209,49.04265],[25.03208,49.00248],[25.09518,49.00007],[25.11538,48.93019],[25.22139,48.93501],[25.24537,48.83058],[25.27819,48.79122],[25.33877,48.86994],[25.42711,48.87958],[25.44099,48.83942],[25.54575,48.80247],[25.63409,48.74785],[25.62652,48.67636],[25.57982,48.62816],[25.60506,48.51731],[25.59497,48.4643],[25.6404,48.39602],[25.52177,48.41449],[25.41575,48.41048],[25.33877,48.38879],[25.19489,48.27713],[25.13431,48.26268],[25.06111,48.15263],[24.98286,48.13737],[24.98917,48.0964],[24.93238,48.05784],[24.8983,47.99037],[24.90713,47.93735],[24.945,47.88595],[25.0081,47.84337],[25.00558,47.81927],[24.93364,47.73011],[24.89578,47.72529],[24.83393,47.81526],[24.70899,47.8514],[24.67365,47.91004],[24.57521,47.96547],[24.56637,48.03294],[24.61433,48.05865],[24.59793,48.10443],[24.52094,48.15183],[24.49696,48.19119],[24.5323,48.24581],[24.4755,48.26589],[24.47803,48.30686],[24.35308,48.37513],[24.31143,48.41289],[24.266,48.36871],[24.18396,48.38638],[24.14105,48.43056],[24.14105,48.54221],[23.99465,48.51329],[23.95048,48.46349],[23.89495,48.48197],[23.9,48.55908],[23.83815,48.55426],[23.77884,48.59683],[23.76243,48.64342],[23.68418,48.637],[23.60972,48.70768],[23.54535,48.72616],[23.56176,48.78078],[23.54535,48.82657],[23.54788,48.91573],[23.59457,49.00811],[23.67408,49.06192],[23.6703,49.09084],[23.74476,49.12618],[23.79146,49.11253],[23.90883,49.10932],[23.96562,49.14386],[24.02368,49.11815],[24.05397,49.15028],[24.23318,49.15109],[24.28367,49.17759],[24.37959,49.18964],[24.33794,49.28764],[24.37832,49.31977],[24.40609,49.37439],[24.36192,49.43143],[24.40357,49.44588],[24.3859,49.50372],[24.4389,49.51256],[24.47803,49.55031],[24.56133,49.53103],[24.62822,49.4997],[24.70899,49.4981]]]}},{"type":"Feature","properties":{"id":"UA.KV","name":"Київська область","name_ru":"Киевская область","short":"Київська","name_en":"Kiev","centroid":[30.4803,50.3025]},"geometry":{"type":"Polygon","coordinates":[[[30.53474,51.2701],[30.5196,51.19861],[30.47542,51.17531],[30.51455,51.11025],[30.48931,51.05161],[30.5095,51.02751],[30.5827,51.02751],[30.64075,50.99859],[30.6824,50.90381],[30.76822,50.86846],[30.74425,50.79858],[30.849,50.76243],[31.05472,50.76243],[31.13928,50.74958],[31.22636,50.68452],[31.21121,50.59696],[31.26927,50.5319],[31.3349,50.51342],[31.38159,50.53109],[31.46615,50.48932],[31.54062,50.52467],[31.63401,50.50619],[31.70847,50.55278],[31.80187,50.54636],[31.8006,50.59375],[31.8473,50.61704],[31.96089,50.57527],[31.99875,50.52788],[32.08331,50.52708],[32.04671,50.44514],[32.05554,50.39856],[32.11234,50.35116],[32.17797,50.32706],[32.15903,50.27967],[32.12243,50.2628],[32.14137,50.20979],[32.08583,50.18649],[32.0303,50.19292],[31.9937,50.10456],[31.93817,50.07564],[31.92934,50.01058],[31.94827,49.95194],[31.82963,49.93507],[31.7476,49.84109],[31.64663,49.84189],[31.581,49.85957],[31.49897,49.84832],[31.46111,49.87804],[31.45101,49.92543],[31.46868,49.97202],[31.43208,49.9905],[31.32101,49.97925],[31.39674,49.89009],[31.32354,49.87884],[31.22383,49.83788],[31.21626,49.78566],[31.23519,49.73265],[31.22762,49.67963],[31.15694,49.59127],[31.0951,49.474],[31.032,49.4507],[31.03326,49.42179],[30.95123,49.41054],[30.94365,49.35753],[30.86288,49.33985],[30.78968,49.34628],[30.72658,49.32861],[30.67988,49.36395],[30.63444,49.36395],[30.56251,49.32861],[30.48047,49.35833],[30.35679,49.26435],[30.20155,49.28121],[30.18136,49.33343],[30.11068,49.29808],[30.09175,49.327],[29.99205,49.33182],[29.95166,49.23141],[29.77497,49.18804],[29.74594,49.24105],[29.65633,49.25712],[29.61721,49.32057],[29.55537,49.33102],[29.51624,49.38323],[29.6109,49.45552],[29.57556,49.46677],[29.56294,49.55513],[29.51498,49.60734],[29.55915,49.63706],[29.51246,49.65955],[29.51877,49.71337],[29.47459,49.71176],[29.47964,49.78326],[29.6374,49.85635],[29.69798,49.92865],[29.74973,49.96479],[29.70303,50.00496],[29.71818,50.07645],[29.68031,50.10536],[29.67653,50.19372],[29.7106,50.23549],[29.69041,50.27646],[29.71565,50.33028],[29.67022,50.3351],[29.65886,50.37606],[29.59323,50.42828],[29.51877,50.45719],[29.52508,50.51664],[29.48722,50.52788],[29.52003,50.61062],[29.49731,50.67568],[29.59702,50.70701],[29.60333,50.7544],[29.50993,50.79456],[29.53139,50.88453],[29.47333,50.94959],[29.48595,51.03956],[29.52003,51.07571],[29.41528,51.14639],[29.31052,51.19298],[29.28907,51.2468],[29.30548,51.29018],[29.35975,51.29098],[29.40266,51.34078],[29.36227,51.39621],[29.41275,51.42995],[29.50867,51.41227],[29.52255,51.4926],[29.59323,51.47493],[29.7207,51.52875],[29.78507,51.44441],[29.88603,51.45485],[29.93525,51.49019],[29.99331,51.48377],[30.01981,51.5175],[30.20155,51.50626],[30.25077,51.4934],[30.34795,51.43236],[30.36184,51.37854],[30.41989,51.31267],[30.46406,51.3191],[30.53474,51.2701]],[[30.36436,50.59937],[30.33912,50.54636],[30.27601,50.51664],[30.24446,50.4339],[30.2899,50.42828],[30.3429,50.458],[30.51581,50.32225],[30.55493,50.25798],[30.63066,50.22184],[30.68367,50.26923],[30.6458,50.2869],[30.61678,50.33992],[30.70007,50.33992],[30.80861,50.39213],[30.76065,50.43952],[30.74803,50.49816],[30.80356,50.52145],[30.80104,50.56885],[30.70765,50.56885],[30.66347,50.5335],[30.53348,50.52788],[30.46659,50.59295],[30.36436,50.59937]]]}},{"type":"Feature","properties":{"id":"UA.KH","name":"Кіровоградська область","name_ru":"Кировоградская область","short":"Кіровоградська","name_en":"Kirovohrad","centroid":[32.1018,48.4613]},"geometry":{"type":"Polygon","coordinates":[[[33.93478,48.87396],[33.91459,48.81452],[33.85905,48.74463],[33.82372,48.76873],[33.69877,48.78319],[33.62557,48.73098],[33.66848,48.69483],[33.72275,48.69323],[33.801,48.65065],[33.79974,48.59764],[33.70003,48.55747],[33.51198,48.52534],[33.51577,48.37754],[33.49558,48.31328],[33.52965,48.24741],[33.5814,48.20484],[33.46402,48.15424],[33.33024,48.12773],[33.30248,48.08034],[33.17753,48.0482],[33.03365,47.9743],[33.01725,48.01607],[32.92007,48.00001],[32.8658,47.95985],[32.82163,47.9727],[32.72445,47.96868],[32.67018,47.91647],[32.70425,47.85703],[32.66008,47.81124],[32.58814,47.78875],[32.5364,47.79518],[32.43922,47.77911],[32.35971,47.78634],[32.31553,47.81606],[32.23728,47.81124],[32.21835,47.7526],[32.12243,47.74859],[32.10477,47.78313],[32.04292,47.80723],[31.94701,47.78473],[31.84983,47.77991],[31.85866,47.85622],[31.88516,47.89639],[31.85866,47.9494],[31.76148,47.95583],[31.75265,48.02089],[31.80565,48.02652],[31.78798,48.07953],[31.72614,48.07953],[31.6542,48.1213],[31.56586,48.09238],[31.48635,48.1221],[31.35383,48.10524],[31.26548,48.10604],[31.25539,48.16468],[31.20238,48.17673],[31.16578,48.21769],[31.04083,48.22412],[31.01559,48.18315],[30.93608,48.16066],[30.83764,48.16066],[30.73036,48.19681],[30.68619,48.16146],[30.62435,48.15584],[30.55241,48.17432],[30.40096,48.16869],[30.32145,48.1454],[30.06272,48.15584],[29.95418,48.25464],[29.91127,48.21368],[29.78759,48.23537],[29.79264,48.34059],[29.80778,48.3928],[29.8936,48.45225],[29.98069,48.49402],[30.12456,48.4659],[30.17631,48.50687],[30.23941,48.49],[30.26592,48.51329],[30.38077,48.53097],[30.41611,48.58398],[30.58649,48.57193],[30.54862,48.63057],[30.61047,48.66591],[30.62687,48.72455],[30.67988,48.75909],[30.83259,48.75909],[30.89569,48.74142],[30.9487,48.76472],[31.05724,48.75829],[31.12034,48.72295],[31.19986,48.75749],[31.26296,48.76311],[31.35383,48.72134],[31.50528,48.77917],[31.58605,48.82014],[31.57595,48.89645],[31.66556,48.90207],[31.71983,48.92457],[31.8372,48.93019],[31.94574,48.89404],[32.02652,48.89324],[32.05302,48.91091],[32.13379,48.88681],[32.17923,48.92698],[32.16156,48.95107],[32.2335,48.99766],[32.2966,49.06755],[32.3698,49.06112],[32.44174,49.0073],[32.46824,49.02497],[32.54018,48.97115],[32.54902,48.91814],[32.61212,48.94063],[32.70299,48.9334],[32.8557,48.95509],[32.85823,49.04987],[32.9125,49.09646],[32.83172,49.10851],[32.77745,49.14466],[32.87842,49.22017],[33.01472,49.21294],[33.01346,49.18322],[33.16744,49.15189],[33.20151,49.06273],[33.26462,49.0563],[33.24821,49.12699],[33.28481,49.13823],[33.33782,49.09084],[33.31005,49.06112],[33.36306,49.01935],[33.33529,48.98963],[33.3517,48.93099],[33.43247,48.90609],[33.56751,48.90368],[33.63945,48.89083],[33.69498,48.94304],[33.76566,48.91252],[33.82876,48.91091],[33.93478,48.87396]]]}},{"type":"Feature","properties":{"id":"UA.LH","name":"Луганська область","name_ru":"Луганская область","short":"Луганська","name_en":"Luhans'k","centroid":[39.0267,48.9868]},"geometry":{"type":"Polygon","coordinates":[[[39.06008,47.86265],[39.0727,47.94699],[39.04115,47.95985],[39.03988,48.00724],[38.82154,48.01848],[38.80009,48.1205],[38.65243,48.1462],[38.58554,48.17351],[38.58932,48.20966],[38.54515,48.27151],[38.4038,48.27312],[38.41137,48.32613],[38.477,48.35264],[38.41894,48.38477],[38.41389,48.42092],[38.3104,48.43859],[38.27002,48.46992],[38.29147,48.49884],[38.22206,48.65708],[38.28769,48.68359],[38.29273,48.72536],[38.24478,48.77516],[38.27759,48.82094],[38.20944,48.84826],[38.21196,48.94384],[38.0075,48.95429],[38.08702,49.01533],[38.05673,49.06514],[38.08323,49.1294],[37.95955,49.14707],[37.9078,49.16715],[37.93935,49.20812],[37.87372,49.25872],[37.95828,49.29085],[37.96207,49.31977],[37.90275,49.35271],[37.89897,49.46677],[37.85479,49.474],[37.8813,49.54469],[37.92673,49.55513],[37.9545,49.63144],[38.03148,49.66999],[38.03022,49.73024],[37.96081,49.75112],[37.98226,49.78647],[38.04915,49.81378],[38.01634,49.84511],[38.07439,49.88366],[38.03401,49.92302],[38.08323,49.95194],[38.18167,49.95917],[38.19934,50.07564],[38.24351,50.0652],[38.33943,50.08609],[38.37351,50.00415],[38.42399,49.98648],[38.477,49.99933],[38.5035,49.96801],[38.61204,49.97764],[38.69786,49.95515],[38.74077,49.91419],[38.84931,49.87081],[38.92125,49.8692],[38.92251,49.82984],[38.97299,49.80816],[39.03105,49.83065],[39.07522,49.82021],[39.1724,49.87965],[39.22289,49.84993],[39.2658,49.7696],[39.37686,49.73988],[39.45258,49.76558],[39.60277,49.74309],[39.59772,49.70775],[39.65704,49.62662],[39.72014,49.61618],[39.79461,49.56959],[39.91324,49.56075],[39.95741,49.5985],[40.06091,49.60814],[40.16187,49.59609],[40.20857,49.56155],[40.2174,49.50693],[40.16313,49.45793],[40.16187,49.39929],[40.19973,49.27077],[40.07605,49.18804],[40.03314,49.18081],[39.9612,49.12056],[39.9347,49.06353],[39.8148,49.07076],[39.74539,49.04506],[39.74791,48.99284],[39.82995,48.88842],[39.90819,48.91252],[39.99906,48.87717],[40.03062,48.91011],[40.07857,48.91332],[40.07605,48.85548],[39.99149,48.80086],[39.79713,48.84986],[39.78072,48.79283],[39.7416,48.77837],[39.70879,48.65949],[39.65704,48.61852],[39.68859,48.59121],[39.78325,48.59282],[39.85014,48.57113],[39.87033,48.51972],[39.8514,48.47233],[39.94101,48.38638],[39.93848,48.35987],[39.85014,48.32212],[39.91577,48.30043],[39.98644,48.31569],[40.01547,48.26669],[39.99654,48.22332],[39.94227,48.21689],[39.90441,48.13014],[39.81859,48.00804],[39.84761,47.99278],[39.81606,47.94539],[39.81606,47.88273],[39.72645,47.82972],[39.63054,47.84016],[39.52957,47.82891],[39.45637,47.86185],[39.37938,47.8755],[39.31628,47.86265],[39.22541,47.86586],[39.12571,47.83936],[39.06008,47.86265]]]}},{"type":"Feature","properties":{"id":"UA.LV","name":"Львівська область","name_ru":"Львовская область","short":"Львівська","name_en":"L'viv","centroid":[23.9229,49.7258]},"geometry":{"type":"Polygon","coordinates":[[[25.11412,50.30939],[25.20877,50.28449],[25.16965,50.22907],[25.20246,50.1889],[25.20246,50.11741],[25.33624,50.00496],[25.40313,49.97845],[25.38546,49.90053],[25.34508,49.85716],[25.26556,49.82342],[25.16334,49.83627],[25.06489,49.8194],[25.07247,49.76076],[25.05101,49.71176],[24.99548,49.72703],[24.93742,49.61136],[24.86549,49.60734],[24.762,49.572],[24.70646,49.57521],[24.70899,49.4981],[24.62822,49.4997],[24.56133,49.53103],[24.47803,49.55031],[24.4389,49.51256],[24.3859,49.50372],[24.40357,49.44588],[24.36192,49.43143],[24.40609,49.37439],[24.37832,49.31977],[24.33794,49.28764],[24.37959,49.18964],[24.28367,49.17759],[24.23318,49.15109],[24.05397,49.15028],[24.02368,49.11815],[23.96562,49.14386],[23.90883,49.10932],[23.79146,49.11253],[23.74476,49.12618],[23.6703,49.09084],[23.67408,49.06192],[23.59457,49.00811],[23.54788,48.91573],[23.54535,48.82657],[23.56176,48.78078],[23.54535,48.72616],[23.47468,48.72054],[23.37497,48.7358],[23.36109,48.76472],[23.29167,48.75909],[23.1844,48.76793],[23.17935,48.79765],[23.12508,48.8587],[22.97868,48.84183],[22.96227,48.88199],[22.89791,48.91332],[22.88529,48.94866],[22.92062,48.97999],[22.89791,49.01453],[22.85626,49.11092],[22.78306,49.1535],[22.74772,49.24025],[22.80451,49.28844],[22.80704,49.33343],[22.69724,49.44508],[22.69976,49.49408],[22.66695,49.52701],[22.67704,49.56718],[22.76286,49.63224],[22.79442,49.69008],[22.89412,49.7463],[22.90295,49.77281],[23.01276,49.85555],[23.27779,50.06922],[23.2942,50.09974],[23.39643,50.15517],[23.46963,50.21139],[23.68292,50.33108],[23.71447,50.3841],[23.80913,50.42105],[23.94291,50.41141],[24.04387,50.44434],[24.06785,50.47888],[24.10193,50.62668],[24.08931,50.64435],[24.14736,50.66122],[24.23697,50.60178],[24.31143,50.58973],[24.33668,50.61544],[24.42123,50.60339],[24.45531,50.55198],[24.50832,50.56724],[24.55249,50.51101],[24.59035,50.507],[24.59035,50.43551],[24.7153,50.38892],[24.71151,50.35357],[24.78597,50.34554],[24.82889,50.36562],[24.93238,50.36],[24.95636,50.39052],[25.04849,50.31823],[25.11412,50.30939]]]}},{"type":"Feature","properties":{"id":"UA.KC","name":"м. Київ","name_ru":"г. Киев","short":"Київ","name_en":"Kiev City","centroid":[30.5512,50.4441]},"geometry":{"type":"Polygon","coordinates":[[[30.36436,50.59937],[30.46659,50.59295],[30.53348,50.52788],[30.66347,50.5335],[30.70765,50.56885],[30.80104,50.56885],[30.80356,50.52145],[30.74803,50.49816],[30.76065,50.43952],[30.80861,50.39213],[30.70007,50.33992],[30.61678,50.33992],[30.6458,50.2869],[30.68367,50.26923],[30.63066,50.22184],[30.55493,50.25798],[30.51581,50.32225],[30.3429,50.458],[30.2899,50.42828],[30.24446,50.4339],[30.27601,50.51664],[30.33912,50.54636],[30.36436,50.59937]]]}},{"type":"Feature","properties":{"id":"UA.MY","name":"Миколаївська область","name_ru":"Николаевская область","short":"Миколаївська","name_en":"Mykolayiv","centroid":[31.7959,47.4427]},"geometry":{"type":"Polygon","coordinates":[[[33.03365,47.9743],[33.02356,47.90362],[33.09423,47.89639],[33.06521,47.80883],[33.07152,47.72047],[33.00968,47.72208],[32.97434,47.69878],[32.98948,47.59918],[33.09423,47.5791],[33.09297,47.56143],[33.12579,47.48351],[33.14093,47.40077],[33.13841,47.31322],[33.10307,47.29635],[33.17879,47.21763],[33.12579,47.20719],[33.07152,47.16783],[32.98443,47.14694],[32.9289,47.07786],[33.09045,46.99673],[33.04628,46.95737],[32.96803,46.97665],[32.95541,46.88909],[32.96172,46.83046],[32.84056,46.81037],[32.72823,46.80796],[32.70299,46.83206],[32.55785,46.84251],[32.54775,46.80716],[32.4796,46.82644],[32.39504,46.82242],[32.35971,46.78226],[32.29155,46.80716],[32.23224,46.78467],[32.18049,46.74451],[32.11108,46.7172],[32.10098,46.67061],[32.00632,46.6441],[31.99244,46.70756],[31.95963,46.7429],[31.97099,46.83447],[31.894,46.79511],[31.89274,46.75495],[31.92555,46.72603],[31.89652,46.63446],[31.80944,46.61357],[31.65168,46.65534],[31.60624,46.64972],[31.56081,46.61036],[31.48887,46.63044],[31.48004,46.6698],[31.39043,46.63687],[31.36014,46.60715],[31.20743,46.63366],[31.21374,46.70434],[31.19859,46.82644],[31.15316,46.84411],[31.05472,46.91962],[31.04462,46.96621],[31.28441,46.98147],[31.32606,47.02163],[31.32354,47.08589],[31.28694,47.16783],[31.15568,47.15096],[31.16199,47.26261],[31.0219,47.24012],[30.99414,47.28671],[30.9222,47.28189],[30.86793,47.32848],[30.9121,47.35177],[30.8755,47.38712],[30.89317,47.41604],[30.85657,47.44576],[30.86288,47.53894],[30.80861,47.56303],[30.74425,47.65139],[30.71017,47.61043],[30.63823,47.61123],[30.64707,47.64577],[30.45144,47.6289],[30.38834,47.6522],[30.35805,47.75823],[30.41989,47.79919],[30.38329,47.83454],[30.30378,47.82811],[30.29116,47.94619],[30.24572,47.97511],[30.23563,48.01607],[30.27728,48.09801],[30.33155,48.10443],[30.32145,48.1454],[30.40096,48.16869],[30.55241,48.17432],[30.62435,48.15584],[30.68619,48.16146],[30.73036,48.19681],[30.83764,48.16066],[30.93608,48.16066],[31.01559,48.18315],[31.04083,48.22412],[31.16578,48.21769],[31.20238,48.17673],[31.25539,48.16468],[31.26548,48.10604],[31.35383,48.10524],[31.48635,48.1221],[31.56586,48.09238],[31.6542,48.1213],[31.72614,48.07953],[31.78798,48.07953],[31.80565,48.02652],[31.75265,48.02089],[31.76148,47.95583],[31.85866,47.9494],[31.88516,47.89639],[31.85866,47.85622],[31.84983,47.77991],[31.94701,47.78473],[32.04292,47.80723],[32.10477,47.78313],[32.12243,47.74859],[32.21835,47.7526],[32.23728,47.81124],[32.31553,47.81606],[32.35971,47.78634],[32.43922,47.77911],[32.5364,47.79518],[32.58814,47.78875],[32.66008,47.81124],[32.70425,47.85703],[32.67018,47.91647],[32.72445,47.96868],[32.82163,47.9727],[32.8658,47.95985],[32.92007,48.00001],[33.01725,48.01607],[33.03365,47.9743]]]}},{"type":"Feature","properties":{"id":"UA.OD","name":"Одеська область","name_ru":"Одесская область","short":"Одеська","name_en":"Odessa","centroid":[29.8671,46.7386]},"geometry":{"type":"Polygon","coordinates":[[[30.32145,48.1454],[30.33155,48.10443],[30.27728,48.09801],[30.23563,48.01607],[30.24572,47.97511],[30.29116,47.94619],[30.30378,47.82811],[30.38329,47.83454],[30.41989,47.79919],[30.35805,47.75823],[30.38834,47.6522],[30.45144,47.6289],[30.64707,47.64577],[30.63823,47.61123],[30.71017,47.61043],[30.74425,47.65139],[30.80861,47.56303],[30.86288,47.53894],[30.85657,47.44576],[30.89317,47.41604],[30.8755,47.38712],[30.9121,47.35177],[30.86793,47.32848],[30.9222,47.28189],[30.99414,47.28671],[31.0219,47.24012],[31.16199,47.26261],[31.15568,47.15096],[31.28694,47.16783],[31.32354,47.08589],[31.32606,47.02163],[31.28441,46.98147],[31.04462,46.96621],[31.05472,46.91962],[31.15316,46.84411],[31.19859,46.82644],[31.21374,46.70434],[31.20743,46.63366],[31.16578,46.63205],[30.849,46.5453],[30.79851,46.55012],[30.75813,46.49148],[30.78968,46.46899],[30.78589,46.40955],[30.75813,46.36215],[30.70512,46.32601],[30.60794,46.20712],[30.47921,46.06976],[30.33281,45.96855],[30.2066,45.85529],[29.83429,45.64403],[29.71565,45.64725],[29.66895,45.69303],[29.6841,45.71633],[29.68789,45.79906],[29.64876,45.79746],[29.62352,45.75007],[29.6374,45.7099],[29.59702,45.6858],[29.59575,45.53961],[29.62857,45.52917],[29.58944,45.46973],[29.63866,45.43599],[29.7106,45.46009],[29.74468,45.4376],[29.74973,45.32675],[29.72196,45.23276],[29.6576,45.21991],[29.65129,45.31952],[29.60459,45.3653],[29.53517,45.40225],[29.41275,45.42956],[29.36101,45.41751],[29.24868,45.42233],[29.18684,45.40386],[29.10228,45.35968],[28.95462,45.31952],[28.942,45.26489],[28.79307,45.31791],[28.75773,45.26409],[28.77162,45.21991],[28.69084,45.2175],[28.57473,45.23758],[28.50784,45.26409],[28.34503,45.30747],[28.29203,45.37655],[28.27941,45.43519],[28.20242,45.45527],[28.26931,45.53077],[28.3097,45.54523],[28.40561,45.51953],[28.4359,45.4874],[28.51668,45.50507],[28.50153,45.56772],[28.54823,45.58379],[28.52804,45.66492],[28.49648,45.67536],[28.54823,45.73721],[28.60629,45.76854],[28.71735,45.79184],[28.7123,45.81915],[28.79055,45.84646],[28.76531,45.92196],[28.79433,45.97739],[28.95462,46.0055],[28.98869,46.02398],[28.99879,46.06896],[28.9584,46.10832],[29.05811,46.2015],[28.94831,46.27781],[28.98869,46.32601],[28.93443,46.46095],[29.08966,46.52763],[29.15024,46.52522],[29.24237,46.56297],[29.2348,46.42641],[29.32315,46.41838],[29.31431,46.4714],[29.35091,46.50674],[29.40139,46.46095],[29.45314,46.4971],[29.49857,46.44328],[29.56042,46.40874],[29.59323,46.36456],[29.68031,46.36376],[29.67274,46.43846],[29.73711,46.43445],[29.75478,46.47541],[29.82924,46.38223],[29.88603,46.36456],[29.94661,46.40312],[30.01098,46.38223],[30.07408,46.40312],[29.99457,46.50433],[29.94661,46.50112],[29.8936,46.54369],[29.95292,46.56297],[29.96681,46.59349],[29.94787,46.65213],[29.97312,46.69149],[29.97943,46.76379],[29.88225,46.84572],[29.87341,46.88427],[29.79642,46.86259],[29.74973,46.86901],[29.73458,46.91962],[29.65255,46.92604],[29.60459,46.96942],[29.61973,47.10276],[29.55284,47.08027],[29.51498,47.13088],[29.59071,47.14212],[29.56042,47.24414],[29.60459,47.26342],[29.58944,47.36623],[29.50362,47.36463],[29.491,47.31563],[29.44304,47.30037],[29.39256,47.31884],[29.38751,47.38631],[29.33955,47.38391],[29.32693,47.43853],[29.25247,47.42648],[29.2083,47.44013],[29.19441,47.4819],[29.13383,47.54938],[29.20072,47.57187],[29.24237,47.64015],[29.22218,47.72369],[29.26761,47.75823],[29.23985,47.79759],[29.20956,47.88755],[29.1881,47.99439],[29.10985,47.98394],[29.07704,47.94217],[28.98869,47.97912],[28.94326,47.95583],[28.85618,48.03294],[28.85618,48.08114],[28.95588,48.09881],[28.9685,48.16628],[29.04927,48.1462],[29.0884,48.20966],[29.16917,48.16548],[29.28276,48.11889],[29.39635,48.1205],[29.42285,48.14379],[29.50236,48.12773],[29.58061,48.12853],[29.60585,48.15183],[29.68536,48.15343],[29.6841,48.20484],[29.78759,48.23537],[29.91127,48.21368],[29.95418,48.25464],[30.06272,48.15584],[30.32145,48.1454]]]}},{"type":"Feature","properties":{"id":"UA.PL","name":"Полтавська область","name_ru":"Полтавская область","short":"Полтавська","name_en":"Poltava","centroid":[33.812,49.7126]},"geometry":{"type":"Polygon","coordinates":[[[34.96463,50.14553],[34.98735,50.06199],[34.93182,50.02664],[34.8927,49.97363],[34.9091,49.93106],[34.99619,49.88286],[35.09337,49.85796],[35.17288,49.85635],[35.22462,49.82583],[35.24608,49.73024],[35.28773,49.68204],[35.43034,49.66758],[35.48082,49.61939],[35.51238,49.55272],[35.4316,49.55352],[35.43918,49.51818],[35.50985,49.51095],[35.50733,49.4748],[35.36598,49.49488],[35.34578,49.45392],[35.39753,49.42902],[35.41267,49.38644],[35.32811,49.31656],[35.23724,49.2764],[35.11482,49.28443],[35.06308,49.31495],[35.02521,49.27961],[35.01386,49.22017],[35.06181,49.13582],[35.01007,49.1543],[34.85988,49.16876],[34.78794,49.14627],[34.75008,49.1045],[34.62387,49.08923],[34.60368,49.03542],[34.45223,49.03783],[34.3967,48.99124],[34.33738,48.87316],[34.38029,48.83058],[34.3336,48.79604],[34.36767,48.74785],[34.31214,48.71331],[34.25156,48.74383],[34.18088,48.75668],[34.15564,48.79845],[34.05846,48.83621],[33.99662,48.84344],[33.93478,48.87396],[33.82876,48.91091],[33.76566,48.91252],[33.69498,48.94304],[33.63945,48.89083],[33.56751,48.90368],[33.43247,48.90609],[33.3517,48.93099],[33.33529,48.98963],[33.36306,49.01935],[33.31005,49.06112],[33.33782,49.09084],[33.28481,49.13823],[33.24821,49.12699],[33.26462,49.0563],[33.20151,49.06273],[33.16744,49.15189],[33.01346,49.18322],[33.01472,49.21294],[32.87842,49.22017],[32.79638,49.2033],[32.76988,49.2274],[32.69668,49.2282],[32.54271,49.28282],[32.48844,49.32459],[32.5162,49.37118],[32.68911,49.32861],[32.77998,49.3278],[32.72571,49.3752],[32.70804,49.44588],[32.79134,49.51577],[32.79134,49.55111],[32.756,49.61055],[32.6828,49.65875],[32.60076,49.67722],[32.59193,49.74791],[32.46446,49.80173],[32.40009,49.85475],[32.45562,49.86037],[32.45562,49.93668],[32.31806,50.02584],[32.29029,50.12063],[32.22466,50.1383],[32.14137,50.20979],[32.12243,50.2628],[32.15903,50.27967],[32.17797,50.32706],[32.28019,50.33188],[32.35466,50.40819],[32.41019,50.39052],[32.50358,50.3841],[32.53135,50.3367],[32.80143,50.34072],[32.89483,50.36401],[32.94152,50.4106],[33.05511,50.45719],[33.09297,50.49816],[33.17627,50.48531],[33.27976,50.49093],[33.27976,50.5319],[33.40975,50.50137],[33.46529,50.46603],[33.59528,50.47647],[33.72527,50.44595],[33.8275,50.44514],[33.8843,50.47487],[33.87546,50.50459],[33.95876,50.50941],[33.99788,50.5327],[34.06982,50.48531],[34.16195,50.49013],[34.24651,50.51985],[34.28185,50.49575],[34.29699,50.42426],[34.4232,50.35839],[34.43835,50.311],[34.49262,50.27485],[34.53805,50.27405],[34.54436,50.22666],[34.59737,50.18408],[34.54184,50.16079],[34.60242,50.10697],[34.72863,50.09974],[34.73998,50.13589],[34.83969,50.15276],[34.96463,50.14553]]]}},{"type":"Feature","properties":{"id":"UA.RV","name":"Рівненська область","name_ru":"Ровенская область","short":"Рівненська","name_en":"Rivne","centroid":[26.3969,51.0434]},"geometry":{"type":"Polygon","coordinates":[[[27.67992,51.52393],[27.57517,51.48778],[27.61177,51.4179],[27.53226,51.43718],[27.48808,51.39219],[27.52973,51.36488],[27.44013,51.3191],[27.46789,51.23636],[27.40605,51.20343],[27.3644,51.148],[27.36819,51.10623],[27.3278,51.05081],[27.27984,51.0484],[27.20916,51.00984],[27.25586,50.92228],[27.24198,50.86766],[27.28489,50.72548],[27.21421,50.67488],[27.22431,50.58009],[27.19781,50.56644],[27.12965,50.59375],[27.01985,50.55921],[26.99461,50.52788],[26.89112,50.54154],[26.78258,50.507],[26.76744,50.47005],[26.64754,50.36321],[26.62861,50.36883],[26.49104,50.2612],[26.37998,50.25638],[26.28532,50.18649],[26.22222,50.17766],[26.15028,50.23389],[26.05436,50.26521],[26.02155,50.22746],[25.9433,50.25959],[25.89913,50.24031],[25.84107,50.18408],[25.67448,50.18167],[25.6404,50.15677],[25.58361,50.17203],[25.47886,50.1134],[25.40439,50.04994],[25.34003,50.0411],[25.33624,50.00496],[25.20246,50.11741],[25.20246,50.1889],[25.16965,50.22907],[25.20877,50.28449],[25.11412,50.30939],[25.20625,50.3857],[25.15198,50.45478],[25.1545,50.5086],[25.11285,50.54877],[25.18605,50.5584],[25.27187,50.53832],[25.32488,50.55921],[25.30721,50.62427],[25.37915,50.64596],[25.42206,50.67809],[25.47886,50.67407],[25.58613,50.70942],[25.70477,50.72709],[25.73001,50.67407],[25.8335,50.66122],[25.87641,50.69255],[25.88398,50.79456],[25.91553,50.83794],[26.02912,50.82509],[25.99631,50.87168],[25.98621,50.96727],[26.06825,50.97691],[26.11242,51.00904],[26.10737,51.04438],[26.04805,51.08374],[25.96349,51.08615],[25.93951,51.12712],[26.03291,51.13113],[26.07329,51.18736],[26.01145,51.23877],[25.96476,51.24841],[25.93068,51.295],[25.84991,51.35123],[25.85622,51.38175],[25.73253,51.3946],[25.67322,51.42191],[25.64545,51.49903],[25.5773,51.51991],[25.61516,51.59944],[25.55332,51.6388],[25.63535,51.66691],[25.71739,51.77696],[25.65681,51.81471],[25.66186,51.85487],[25.7338,51.90789],[25.64671,51.91592],[25.62652,51.93761],[25.807,51.93279],[25.85369,51.95689],[25.96097,51.92797],[26.04805,51.94243],[26.11621,51.92877],[26.19319,51.88058],[26.3661,51.87656],[26.5024,51.80909],[26.54026,51.80507],[26.62608,51.8364],[26.7788,51.82596],[26.82676,51.77133],[26.86714,51.78097],[26.98578,51.7641],[26.9984,51.78178],[27.19402,51.7874],[27.19907,51.68378],[27.26217,51.65566],[27.23062,51.60265],[27.34926,51.62434],[27.45779,51.62032],[27.55245,51.64281],[27.60293,51.62112],[27.72031,51.61952],[27.71526,51.57293],[27.67992,51.52393]]]}},{"type":"Feature","properties":{"id":"UA.SC","name":"Севастополь","name_ru":"Севастополь","short":"Севастополь","name_en":"Sevastopol'","centroid":[33.6468,44.5712]},"geometry":{"type":"Polygon","coordinates":[[[33.78712,44.38211],[33.7278,44.38853],[33.6344,44.43271],[33.6079,44.48814],[33.47412,44.50099],[33.40597,44.54437],[33.43878,44.59738],[33.53344,44.65522],[33.53849,44.7259],[33.52713,44.79739],[33.5713,44.84398],[33.59276,44.80221],[33.66469,44.78213],[33.61295,44.74197],[33.61926,44.7002],[33.72527,44.70422],[33.77323,44.67369],[33.75304,44.62068],[33.66848,44.58614],[33.71391,44.51625],[33.79721,44.49778],[33.86158,44.52428],[33.92721,44.4295],[33.79469,44.39416],[33.78712,44.38211]]]}},{"type":"Feature","properties":{"id":"UA.SM","name":"Сумська область","name_ru":"Сумская область","short":"Сумська","name_en":"Sumy","centroid":[34.1429,51.0952]},"geometry":{"type":"Polygon","coordinates":[[[35.65878,50.36],[35.53888,50.32064],[35.50228,50.29654],[35.42151,50.32144],[35.33064,50.29815],[35.26375,50.22103],[35.18424,50.24513],[35.0921,50.19774],[35.01007,50.18087],[34.96463,50.14553],[34.83969,50.15276],[34.73998,50.13589],[34.72863,50.09974],[34.60242,50.10697],[34.54184,50.16079],[34.59737,50.18408],[34.54436,50.22666],[34.53805,50.27405],[34.49262,50.27485],[34.43835,50.311],[34.4232,50.35839],[34.29699,50.42426],[34.28185,50.49575],[34.24651,50.51985],[34.16195,50.49013],[34.06982,50.48531],[33.99788,50.5327],[33.95876,50.50941],[33.87546,50.50459],[33.8843,50.47487],[33.8275,50.44514],[33.72527,50.44595],[33.59528,50.47647],[33.46529,50.46603],[33.40975,50.50137],[33.27976,50.5319],[33.27976,50.49093],[33.17627,50.48531],[33.09297,50.49816],[33.122,50.55037],[33.13336,50.63873],[33.18889,50.6564],[33.17122,50.69175],[33.24695,50.73834],[33.20151,50.76806],[33.19394,50.86204],[33.2419,50.89096],[33.23306,50.93835],[33.08288,50.9745],[33.1119,51.01546],[33.10307,51.05081],[32.98948,51.099],[33.01851,51.13354],[32.99074,51.16326],[33.05763,51.19218],[33.08666,51.23957],[33.09676,51.35685],[33.14472,51.36247],[33.13462,51.42754],[33.15481,51.48055],[33.19268,51.48617],[33.2217,51.56329],[33.14472,51.65165],[33.18384,51.68699],[33.11821,51.77053],[33.16744,51.8115],[33.1687,51.86532],[33.28733,51.92315],[33.39461,51.91672],[33.42742,51.96412],[33.3416,51.99946],[33.39713,52.03239],[33.44383,52.01392],[33.5082,52.02517],[33.5082,52.06613],[33.45266,52.07256],[33.3618,52.14003],[33.32519,52.19305],[33.38956,52.26052],[33.42742,52.34406],[33.53091,52.34968],[33.5713,52.31434],[33.66343,52.32559],[33.72527,52.3545],[33.83255,52.34968],[33.84391,52.3039],[33.92342,52.30149],[33.93478,52.25892],[34.11399,52.13441],[34.06856,52.06934],[34.09254,52.01553],[34.1569,51.95689],[34.26544,51.90869],[34.41815,51.82114],[34.39544,51.78258],[34.43204,51.7384],[34.40301,51.72073],[34.30709,51.71752],[34.26039,51.69743],[34.12661,51.68699],[34.09128,51.6637],[34.25156,51.58899],[34.31845,51.52875],[34.22506,51.40023],[34.34243,51.35765],[34.27049,51.25965],[34.36389,51.23315],[34.41437,51.26769],[34.5166,51.2468],[34.65543,51.24761],[34.68824,51.18816],[34.8195,51.17612],[34.83212,51.19941],[34.97599,51.23716],[35.12366,51.2211],[35.1287,51.15121],[35.19559,51.05884],[35.28142,51.06687],[35.31297,51.08695],[35.42403,51.05402],[35.42529,51.03313],[35.35462,50.99377],[35.34326,50.94879],[35.4051,50.93273],[35.395,50.88533],[35.42655,50.86204],[35.42782,50.81465],[35.49092,50.77127],[35.47199,50.73753],[35.50102,50.68853],[35.41646,50.64034],[35.41267,50.58973],[35.46189,50.52708],[35.53005,50.47567],[35.58305,50.46683],[35.5881,50.40337],[35.65878,50.36]]]}},{"type":"Feature","properties":{"id":"UA.TP","name":"Тернопільська область","name_ru":"Тернопольская область","short":"Тернопільська","name_en":"Ternopil'","centroid":[25.6398,49.4044]},"geometry":{"type":"Polygon","coordinates":[[[26.22222,50.17766],[26.24872,50.10135],[26.19319,50.09894],[26.20455,49.99773],[26.14271,49.97684],[26.14902,49.91178],[26.19193,49.86599],[26.16669,49.84752],[26.24115,49.74952],[26.20834,49.71257],[26.24872,49.69088],[26.25377,49.63706],[26.19445,49.59931],[26.20834,49.55834],[26.14018,49.50131],[26.1995,49.4748],[26.21339,49.42741],[26.21843,49.30933],[26.24115,49.26836],[26.19067,49.23061],[26.20707,49.16635],[26.18057,49.08201],[26.20707,49.0065],[26.19193,48.9816],[26.19824,48.85789],[26.24872,48.81853],[26.20707,48.78721],[26.2462,48.76472],[26.23863,48.67636],[26.32823,48.61451],[26.33454,48.56711],[26.43804,48.53579],[26.35979,48.50928],[26.28406,48.53579],[26.17678,48.52615],[26.1465,48.55426],[26.15028,48.59603],[25.96602,48.61852],[25.9168,48.58719],[25.78806,48.67073],[25.70855,48.6619],[25.62652,48.67636],[25.63409,48.74785],[25.54575,48.80247],[25.44099,48.83942],[25.42711,48.87958],[25.33877,48.86994],[25.27819,48.79122],[25.24537,48.83058],[25.22139,48.93501],[25.11538,48.93019],[25.09518,49.00007],[25.03208,49.00248],[24.90209,49.04265],[24.95005,49.07478],[24.9715,49.11735],[24.8983,49.12538],[24.83646,49.18081],[24.88315,49.22418],[24.82384,49.26836],[24.80869,49.30853],[24.83898,49.34548],[24.80617,49.38564],[24.75947,49.39448],[24.70899,49.4981],[24.70646,49.57521],[24.762,49.572],[24.86549,49.60734],[24.93742,49.61136],[24.99548,49.72703],[25.05101,49.71176],[25.07247,49.76076],[25.06489,49.8194],[25.16334,49.83627],[25.26556,49.82342],[25.34508,49.85716],[25.38546,49.90053],[25.40313,49.97845],[25.33624,50.00496],[25.34003,50.0411],[25.40439,50.04994],[25.47886,50.1134],[25.58361,50.17203],[25.6404,50.15677],[25.67448,50.18167],[25.84107,50.18408],[25.89913,50.24031],[25.9433,50.25959],[26.02155,50.22746],[26.05436,50.26521],[26.15028,50.23389],[26.22222,50.17766]]]}},{"type":"Feature","properties":{"id":"UA.KK","name":"Харківська область","name_ru":"Харьковская область","short":"Харківська","name_en":"Kharkiv","centroid":[36.5117,49.6151]},"geometry":{"type":"Polygon","coordinates":[[[38.03401,49.92302],[38.07439,49.88366],[38.01634,49.84511],[38.04915,49.81378],[37.98226,49.78647],[37.96081,49.75112],[38.03022,49.73024],[38.03148,49.66999],[37.9545,49.63144],[37.92673,49.55513],[37.8813,49.54469],[37.85479,49.474],[37.89897,49.46677],[37.90275,49.35271],[37.96207,49.31977],[37.95828,49.29085],[37.87372,49.25872],[37.85984,49.22338],[37.7879,49.22097],[37.65665,49.24507],[37.57587,49.24828],[37.51782,49.21535],[37.55947,49.18964],[37.58092,49.13502],[37.49762,49.10932],[37.51151,49.07317],[37.39287,49.05469],[37.37773,49.00811],[37.30326,48.98079],[37.30831,48.94545],[37.23385,48.91252],[37.14677,48.84424],[37.08366,48.84665],[36.98775,48.77837],[36.91959,48.79765],[36.68611,48.77436],[36.73281,48.69564],[36.70504,48.68439],[36.73407,48.61852],[36.68989,48.61933],[36.60912,48.59121],[36.47282,48.65387],[36.3769,48.55426],[36.25826,48.59844],[36.27972,48.65226],[36.15225,48.70849],[36.15856,48.77436],[36.13332,48.79845],[36.03866,48.83058],[36.00459,48.96875],[35.84304,48.93661],[35.82411,48.91252],[35.72188,48.96232],[35.59694,48.95268],[35.51742,48.96071],[35.45811,48.99766],[35.21831,49.09727],[35.21074,49.13341],[35.06181,49.13582],[35.01386,49.22017],[35.02521,49.27961],[35.06308,49.31495],[35.11482,49.28443],[35.23724,49.2764],[35.32811,49.31656],[35.41267,49.38644],[35.39753,49.42902],[35.34578,49.45392],[35.36598,49.49488],[35.50733,49.4748],[35.50985,49.51095],[35.43918,49.51818],[35.4316,49.55352],[35.51238,49.55272],[35.48082,49.61939],[35.43034,49.66758],[35.28773,49.68204],[35.24608,49.73024],[35.22462,49.82583],[35.17288,49.85635],[35.09337,49.85796],[34.99619,49.88286],[34.9091,49.93106],[34.8927,49.97363],[34.93182,50.02664],[34.98735,50.06199],[34.96463,50.14553],[35.01007,50.18087],[35.0921,50.19774],[35.18424,50.24513],[35.26375,50.22103],[35.33064,50.29815],[35.42151,50.32144],[35.50228,50.29654],[35.53888,50.32064],[35.65878,50.36],[35.73072,50.3592],[35.81023,50.40177],[35.83294,50.44996],[35.93643,50.44595],[35.97682,50.46121],[36.074,50.46362],[36.15477,50.44916],[36.18254,50.41462],[36.27215,50.36562],[36.31506,50.29413],[36.38447,50.29574],[36.42864,50.32466],[36.49301,50.32706],[36.5965,50.2379],[36.65961,50.22907],[36.71135,50.27646],[36.87794,50.33911],[36.9259,50.34715],[37.05337,50.33429],[37.16696,50.34956],[37.29317,50.3857],[37.33608,50.42105],[37.40928,50.4106],[37.49258,50.42908],[37.48122,50.35357],[37.57461,50.30538],[37.64655,50.30538],[37.62509,50.22103],[37.65286,50.17685],[37.76014,50.09653],[37.9343,50.04753],[37.94819,50.01941],[38.04789,49.95596],[38.03401,49.92302]]]}},{"type":"Feature","properties":{"id":"UA.KS","name":"Херсонська область","name_ru":"Херсонская область","short":"Херсонська","name_en":"Kherson","centroid":[33.5815,46.6521]},"geometry":{"type":"MultiPolygon","coordinates":[[[[32.70047,46.0304],[32.77619,46.01675],[32.85318,46.04486],[32.93016,46.02559],[32.93016,45.99667],[32.82794,46.0047],[32.70047,46.0304]]],[[[34.50019,46.04004],[34.61378,46.03281],[34.61882,46.08181],[34.55951,46.11555],[34.51912,46.05531],[34.42699,46.1019],[34.32855,46.028],[34.21117,46.0288],[34.06982,46.04888],[34.0572,46.01193],[34.04206,46.04647],[33.99031,46.05531],[33.97264,46.08824],[33.88303,46.13804],[33.81993,46.15571],[33.74673,46.14286],[33.65586,46.18624],[33.6079,46.1019],[33.55616,46.10993],[33.49684,46.06575],[33.42111,46.03844],[33.32772,46.10029],[33.1586,46.13242],[33.10686,46.10431],[33.03113,46.14126],[32.98822,46.08904],[32.92133,46.08503],[32.75978,46.10591],[32.61591,46.09145],[32.53135,46.05932],[32.44679,46.06736],[32.20952,46.1276],[32.20195,46.18624],[32.09214,46.21355],[32.05807,46.25532],[31.76274,46.29066],[31.81323,46.34368],[31.95963,46.34609],[31.9937,46.35653],[32.03283,46.41356],[32.02778,46.44971],[31.93943,46.43364],[31.90788,46.46417],[31.76148,46.4971],[31.68828,46.45292],[31.57091,46.55413],[31.73119,46.55012],[31.91293,46.51718],[32.0139,46.49068],[32.18554,46.49309],[32.20952,46.47461],[32.30291,46.4722],[32.31553,46.55413],[32.26631,46.58466],[32.14641,46.55253],[32.13127,46.58787],[32.00632,46.6441],[32.10098,46.67061],[32.11108,46.7172],[32.18049,46.74451],[32.23224,46.78467],[32.29155,46.80716],[32.35971,46.78226],[32.39504,46.82242],[32.4796,46.82644],[32.54775,46.80716],[32.55785,46.84251],[32.70299,46.83206],[32.72823,46.80796],[32.84056,46.81037],[32.96172,46.83046],[32.95541,46.88909],[32.96803,46.97665],[33.04628,46.95737],[33.09045,46.99673],[32.9289,47.07786],[32.98443,47.14694],[33.07152,47.16783],[33.12579,47.20719],[33.17879,47.21763],[33.10307,47.29635],[33.13841,47.31322],[33.14093,47.40077],[33.12579,47.48351],[33.09297,47.56143],[33.20656,47.54054],[33.22297,47.51082],[33.34413,47.46022],[33.37189,47.49476],[33.44257,47.49877],[33.488,47.52689],[33.4981,47.56785],[33.58645,47.57669],[33.59149,47.48833],[33.65081,47.457],[33.80857,47.46985],[33.92342,47.48994],[34.00672,47.42246],[34.14807,47.44817],[34.24904,47.39194],[34.27049,47.31402],[34.30962,47.2345],[34.48378,47.26663],[34.53174,47.20558],[34.48883,47.19996],[34.5166,47.09794],[34.55825,47.05457],[34.57213,46.99432],[34.60368,46.94532],[34.68698,46.90114],[34.75639,46.89954],[34.77785,46.82644],[34.82076,46.82564],[34.8359,46.77101],[34.78416,46.76619],[34.78037,46.69952],[34.67688,46.67703],[34.65795,46.64089],[34.6996,46.61518],[34.77658,46.61438],[34.7829,46.5469],[34.74629,46.51076],[34.78794,46.47943],[34.87503,46.4963],[34.92299,46.42882],[34.97473,46.44087],[35.0757,46.41115],[35.09715,46.32681],[35.1022,46.23925],[35.13501,46.23604],[35.03152,46.17901],[34.93182,46.16214],[34.86493,46.11796],[34.84347,46.0529],[34.73367,46.08904],[34.65416,46.0794],[34.66426,46.01032],[34.60242,45.94847],[34.52164,45.9308],[34.45854,45.9798],[34.46359,46.02077],[34.50019,46.04004]]]]}},{"type":"Feature","properties":{"id":"UA.KM","name":"Хмельницька область","name_ru":"Хмельницкая область","short":"Хмельницька","name_en":"Khmel'nyts'kyy","centroid":[26.9291,49.5057]},"geometry":{"type":"Polygon","coordinates":[[[27.19781,50.56644],[27.20916,50.53752],[27.30761,50.49334],[27.25208,50.39615],[27.33032,50.36321],[27.33159,50.33911],[27.40857,50.31903],[27.41362,50.27726],[27.5108,50.22746],[27.59284,50.26039],[27.59662,50.213],[27.68623,50.15115],[27.62313,50.12464],[27.62691,50.08368],[27.68497,50.06761],[27.61555,50.00576],[27.54993,50.00897],[27.57264,49.96238],[27.54993,49.90133],[27.61555,49.8925],[27.65215,49.79289],[27.72788,49.77844],[27.82506,49.73426],[27.77584,49.65473],[27.8238,49.63947],[27.77205,49.58324],[27.79603,49.52541],[27.75186,49.4997],[27.87049,49.28443],[27.86923,49.17197],[27.8036,49.19286],[27.75312,49.14386],[27.65973,49.16314],[27.6042,49.16153],[27.57138,49.11815],[27.50702,49.12779],[27.49439,49.06192],[27.43003,49.05951],[27.38964,48.99284],[27.41993,48.96393],[27.38712,48.92698],[27.41867,48.86352],[27.40605,48.686],[27.3745,48.63137],[27.31392,48.59924],[27.23188,48.6137],[27.22683,48.56631],[27.1549,48.58639],[27.10441,48.55506],[26.93529,48.57595],[26.90374,48.54542],[26.83938,48.5647],[26.75103,48.55426],[26.71822,48.52856],[26.72453,48.48679],[26.65259,48.48357],[26.61977,48.45305],[26.55541,48.46269],[26.51124,48.52615],[26.43804,48.53579],[26.33454,48.56711],[26.32823,48.61451],[26.23863,48.67636],[26.2462,48.76472],[26.20707,48.78721],[26.24872,48.81853],[26.19824,48.85789],[26.19193,48.9816],[26.20707,49.0065],[26.18057,49.08201],[26.20707,49.16635],[26.19067,49.23061],[26.24115,49.26836],[26.21843,49.30933],[26.21339,49.42741],[26.1995,49.4748],[26.14018,49.50131],[26.20834,49.55834],[26.19445,49.59931],[26.25377,49.63706],[26.24872,49.69088],[26.20834,49.71257],[26.24115,49.74952],[26.16669,49.84752],[26.19193,49.86599],[26.14902,49.91178],[26.14271,49.97684],[26.20455,49.99773],[26.19319,50.09894],[26.24872,50.10135],[26.22222,50.17766],[26.28532,50.18649],[26.37998,50.25638],[26.49104,50.2612],[26.62861,50.36883],[26.64754,50.36321],[26.76744,50.47005],[26.78258,50.507],[26.89112,50.54154],[26.99461,50.52788],[27.01985,50.55921],[27.12965,50.59375],[27.19781,50.56644]]]}},{"type":"Feature","properties":{"id":"UA.CK","name":"Черкаська область","name_ru":"Черкасская область","short":"Черкаська","name_en":"Cherkasy","centroid":[31.3795,49.2551]},"geometry":{"type":"Polygon","coordinates":[[[32.87842,49.22017],[32.77745,49.14466],[32.83172,49.10851],[32.9125,49.09646],[32.85823,49.04987],[32.8557,48.95509],[32.70299,48.9334],[32.61212,48.94063],[32.54902,48.91814],[32.54018,48.97115],[32.46824,49.02497],[32.44174,49.0073],[32.3698,49.06112],[32.2966,49.06755],[32.2335,48.99766],[32.16156,48.95107],[32.17923,48.92698],[32.13379,48.88681],[32.05302,48.91091],[32.02652,48.89324],[31.94574,48.89404],[31.8372,48.93019],[31.71983,48.92457],[31.66556,48.90207],[31.57595,48.89645],[31.58605,48.82014],[31.50528,48.77917],[31.35383,48.72134],[31.26296,48.76311],[31.19986,48.75749],[31.12034,48.72295],[31.05724,48.75829],[30.9487,48.76472],[30.89569,48.74142],[30.83259,48.75909],[30.67988,48.75909],[30.62687,48.72455],[30.61047,48.66591],[30.54862,48.63057],[30.58649,48.57193],[30.41611,48.58398],[30.38077,48.53097],[30.26592,48.51329],[30.23941,48.49],[30.17631,48.50687],[30.12456,48.4659],[29.98069,48.49402],[30.04127,48.53498],[30.01098,48.64021],[29.96428,48.6868],[29.87467,48.73259],[29.88098,48.77917],[29.78254,48.80167],[29.78128,48.84263],[29.74342,48.87717],[29.75099,48.91814],[29.67022,48.94625],[29.71187,49.0057],[29.66517,49.0571],[29.66264,49.1045],[29.74847,49.18804],[29.74594,49.24105],[29.77497,49.18804],[29.95166,49.23141],[29.99205,49.33182],[30.09175,49.327],[30.11068,49.29808],[30.18136,49.33343],[30.20155,49.28121],[30.35679,49.26435],[30.48047,49.35833],[30.56251,49.32861],[30.63444,49.36395],[30.67988,49.36395],[30.72658,49.32861],[30.78968,49.34628],[30.86288,49.33985],[30.94365,49.35753],[30.95123,49.41054],[31.03326,49.42179],[31.032,49.4507],[31.0951,49.474],[31.15694,49.59127],[31.22762,49.67963],[31.23519,49.73265],[31.21626,49.78566],[31.22383,49.83788],[31.32354,49.87884],[31.39674,49.89009],[31.32101,49.97925],[31.43208,49.9905],[31.46868,49.97202],[31.45101,49.92543],[31.46111,49.87804],[31.49897,49.84832],[31.581,49.85957],[31.64663,49.84189],[31.7476,49.84109],[31.82963,49.93507],[31.94827,49.95194],[31.92934,50.01058],[31.93817,50.07564],[31.9937,50.10456],[32.0303,50.19292],[32.08583,50.18649],[32.14137,50.20979],[32.22466,50.1383],[32.29029,50.12063],[32.31806,50.02584],[32.45562,49.93668],[32.45562,49.86037],[32.40009,49.85475],[32.46446,49.80173],[32.59193,49.74791],[32.60076,49.67722],[32.6828,49.65875],[32.756,49.61055],[32.79134,49.55111],[32.79134,49.51577],[32.70804,49.44588],[32.72571,49.3752],[32.77998,49.3278],[32.68911,49.32861],[32.5162,49.37118],[32.48844,49.32459],[32.54271,49.28282],[32.69668,49.2282],[32.76988,49.2274],[32.79638,49.2033],[32.87842,49.22017]]]}},{"type":"Feature","properties":{"id":"UA.CV","name":"Чернівецька область","name_ru":"Черновицкая область","short":"Чернівецька","name_en":"Chernivtsi","centroid":[25.9682,48.2699]},"geometry":{"type":"Polygon","coordinates":[[[25.62652,48.67636],[25.70855,48.6619],[25.78806,48.67073],[25.9168,48.58719],[25.96602,48.61852],[26.15028,48.59603],[26.1465,48.55426],[26.17678,48.52615],[26.28406,48.53579],[26.35979,48.50928],[26.43804,48.53579],[26.51124,48.52615],[26.55541,48.46269],[26.61977,48.45305],[26.65259,48.48357],[26.72453,48.48679],[26.71822,48.52856],[26.75103,48.55426],[26.83938,48.5647],[26.90374,48.54542],[26.93529,48.57595],[27.10441,48.55506],[27.1549,48.58639],[27.22683,48.56631],[27.23188,48.6137],[27.31392,48.59924],[27.3745,48.63137],[27.45779,48.59282],[27.47041,48.51008],[27.53352,48.4643],[27.4641,48.42333],[27.38081,48.41048],[27.32401,48.4418],[27.28489,48.38397],[27.15111,48.38317],[27.09432,48.40887],[27.00345,48.36549],[26.92772,48.37031],[26.88102,48.42574],[26.72705,48.39521],[26.82928,48.34059],[26.82044,48.2932],[26.69045,48.34782],[26.67404,48.30846],[26.59075,48.2442],[26.51881,48.20484],[26.47464,48.22171],[26.3459,48.18074],[26.3093,48.12933],[26.16921,47.98876],[25.9799,47.97591],[25.94456,47.98153],[25.80573,47.9494],[25.62778,47.94298],[25.29081,47.91245],[25.22644,47.8988],[25.19994,47.84418],[25.11412,47.75983],[25.0081,47.73172],[24.93364,47.73011],[25.00558,47.81927],[25.0081,47.84337],[24.945,47.88595],[24.90713,47.93735],[24.8983,47.99037],[24.93238,48.05784],[24.98917,48.0964],[24.98286,48.13737],[25.06111,48.15263],[25.13431,48.26268],[25.19489,48.27713],[25.33877,48.38879],[25.41575,48.41048],[25.52177,48.41449],[25.6404,48.39602],[25.59497,48.4643],[25.60506,48.51731],[25.57982,48.62816],[25.62652,48.67636]]]}},{"type":"Feature","properties":{"id":"UA.CH","name":"Чернігівська область","name_ru":"Черниговская область","short":"Чернігівська","name_en":"Chernihiv","centroid":[32.0195,51.347]},"geometry":{"type":"Polygon","coordinates":[[[33.42742,52.34406],[33.38956,52.26052],[33.32519,52.19305],[33.3618,52.14003],[33.45266,52.07256],[33.5082,52.06613],[33.5082,52.02517],[33.44383,52.01392],[33.39713,52.03239],[33.3416,51.99946],[33.42742,51.96412],[33.39461,51.91672],[33.28733,51.92315],[33.1687,51.86532],[33.16744,51.8115],[33.11821,51.77053],[33.18384,51.68699],[33.14472,51.65165],[33.2217,51.56329],[33.19268,51.48617],[33.15481,51.48055],[33.13462,51.42754],[33.14472,51.36247],[33.09676,51.35685],[33.08666,51.23957],[33.05763,51.19218],[32.99074,51.16326],[33.01851,51.13354],[32.98948,51.099],[33.10307,51.05081],[33.1119,51.01546],[33.08288,50.9745],[33.23306,50.93835],[33.2419,50.89096],[33.19394,50.86204],[33.20151,50.76806],[33.24695,50.73834],[33.17122,50.69175],[33.18889,50.6564],[33.13336,50.63873],[33.122,50.55037],[33.09297,50.49816],[33.05511,50.45719],[32.94152,50.4106],[32.89483,50.36401],[32.80143,50.34072],[32.53135,50.3367],[32.50358,50.3841],[32.41019,50.39052],[32.35466,50.40819],[32.28019,50.33188],[32.17797,50.32706],[32.11234,50.35116],[32.05554,50.39856],[32.04671,50.44514],[32.08331,50.52708],[31.99875,50.52788],[31.96089,50.57527],[31.8473,50.61704],[31.8006,50.59375],[31.80187,50.54636],[31.70847,50.55278],[31.63401,50.50619],[31.54062,50.52467],[31.46615,50.48932],[31.38159,50.53109],[31.3349,50.51342],[31.26927,50.5319],[31.21121,50.59696],[31.22636,50.68452],[31.13928,50.74958],[31.05472,50.76243],[30.849,50.76243],[30.74425,50.79858],[30.76822,50.86846],[30.6824,50.90381],[30.64075,50.99859],[30.5827,51.02751],[30.5095,51.02751],[30.48931,51.05161],[30.51455,51.11025],[30.47542,51.17531],[30.5196,51.19861],[30.53474,51.2701],[30.58775,51.28054],[30.60415,51.32151],[30.65716,51.33757],[30.61551,51.45324],[30.52843,51.57132],[30.56629,51.60747],[30.52086,51.66209],[30.56755,51.67414],[30.62435,51.72394],[30.69755,51.838],[30.71143,51.8854],[30.8124,51.91592],[30.80609,51.95126],[30.86162,51.98982],[30.94113,51.99303],[30.95123,52.07818],[31.05724,52.07818],[31.11151,52.09505],[31.23519,52.04846],[31.30713,52.09907],[31.44344,52.13762],[31.49013,52.11995],[31.68197,52.11433],[31.80818,52.09585],[31.85866,52.1079],[31.94953,52.0838],[31.92303,52.03641],[32.02147,52.04123],[32.07195,52.02276],[32.20952,52.0573],[32.29913,52.09184],[32.35087,52.13923],[32.32942,52.23562],[32.39631,52.25329],[32.35844,52.33603],[32.53135,52.33362],[32.62096,52.30229],[32.70678,52.25329],[32.74716,52.27016],[32.87968,52.27337],[32.90871,52.24365],[32.97686,52.26454],[33.07404,52.32237],[33.17753,52.33763],[33.24316,52.36816],[33.34413,52.33844],[33.42742,52.34406]]]}}]}